FID,NAME,ADDRESS,STATE,ZIP,LAT,LONG,CAFO_TYPE,CAFO_SUBTY,SIS_CODE,E_AU,MANURE_AMT,E_MANURE_A,T_MANURE_A,NOTE,Geo_note,x,y
0,"VANDERLEI, KORNELIS WILT",1090 COUNTY ROAD 222 AMHERST,TX,79312,34.022222,-102.43972,Dairy cattle,CATTLE (Dairy);,SIS0241, ,11815, ,11815, ,Relocated,-11403538,4031787
1,"VANDERLEI, PIERTSJE DEBOER",1090 COUNTY ROAD 222 AMHERST,TX,79312,34.022222,-102.43972,Dairy cattle,CATTLE (Dairy);,SIS0241, ,11815, ,11815, ,Relocated,-11403538,4031787
2,"TAPIA, ADOLFO",13153 KLATTENHOFF RD MILES,TX,76861,31.380166,-100.155845,Dairy cattle,CATTLE (Dairy);,SIS0241, ,19343, ,19343, , ,-11149299,3682221
3,"VAN KOOTEN, GERARD",3200 FM RD 1689 COMANCHE,TX,76442,31.916666,-98.7,Dairy cattle,CATTLE (Dairy);,SIS0241, ,3376, ,3376, , ,-10989082,3754166
4,"DEBOER, JOHAN ALEXANDER",1685 COUNTY ROAD 418 DUBLIN,TX,76446,32.16,-98.375,Dairy cattle,CATTLE (Dairy);,SIS0241, ,7109, ,7109, , ,-10951421,3784248
5,"SIMPSON, RICHARD TED",3495 COUNTY ROAD 381 BROWNWOOD,TX,76802,31.766666,-98.966666,Dairy cattle,CATTLE (Dairy);,SIS0241, ,4413, ,4413, , ,-11016503,3732081
6,"PLANTINGA, DOUWE",5522 FARM ROAD 900 S SALTILLO,TX,75478,33.100966,-95.319316,Dairy cattle,CATTLE (Dairy);,SIS0241, ,441, ,441, , ,-10610228,3908810
7,"MOERMAN, WAYNE",15281 HIGHWAY 16 COMANCHE,TX,76442,31.854444,-98.578611,Dairy cattle,CATTLE (Dairy);,SIS0241, ,24634, ,24634, , ,-10973722,3744220
8,"VANDERLEI, KORNELIS WILT",1054 US HIGHWAY 84 AMHERST,TX,79312,34.016666,-102.45833,Dairy cattle,CATTLE (Dairy);,SIS0241, ,11038, ,11038, , ,-11405196,4030609
9,"VANDERLEI, PIERTSJE DEBOER",1054 US HIGHWAY 84 AMHERST,TX,79312,34.016666,-102.45833,Dairy cattle,CATTLE (Dairy);,SIS0241, ,11038, ,11038, , ,-11405196,4030609
10,"BUSBY, JERRY MACK",1590 COUNTY ROAD 2410 PICKTON,TX,75471,32.974166,-95.364166,Dairy cattle,CATTLE (Dairy);,SIS0241, ,356, ,356, , ,-10616294,3891982
11,"BUSBY, JERRY MACK",1590 COUNTY ROAD 2410 PICKTON,TX,75471,32.974166,-95.364166,Dairy cattle,CATTLE (Dairy);,SIS0241, ,356, ,356, , ,-10616294,3891982
12,"ALMEIDA, FABIAN",5620 WOODARD AVE CLEBURNE,TX,76033,32.331944,-97.497777,Dairy cattle,CATTLE (Dairy);,SIS0241, ,5140, ,5140, , ,-10853404,3806963
13,"BOUMA, MAIKO HESSEL",4252 COUNTY ROAD 2408 WINNSBORO,TX,75494,32.980666,-95.328666,Dairy cattle,CATTLE (Dairy);,SIS0241, ,4185, ,4185, , ,-10611939,3892739
14,"OSTERKAMP, THOMAS ALAN",1361 FM 1057 HEREFORD,TX,79045,34.566666,-102.51666,Dairy cattle,CATTLE (Dairy);,SIS0241, ,12308, ,12308, , ,-11411930,4104665
15,"OSTERKAMP, SANDRA CARROL",1361 FM 1057 HEREFORD,TX,79045,34.566666,-102.51666,Dairy cattle,CATTLE (Dairy);,SIS0241, ,12308, ,12308, , ,-11411930,4104665
16,"OSTERKAMP, THOMAS ALAN",1350 FM 1057 HEREFORD,TX,79045,34.577,-102.5384,Dairy cattle,CATTLE (Dairy);,SIS0241, ,16475, ,16475, , ,-11414176,4106113
17,"OSTERKAMP, SANDRA CARROL",1350 FM 1057 HEREFORD,TX,79045,34.577,-102.5384,Dairy cattle,CATTLE (Dairy);,SIS0241, ,16475, ,16475, , ,-11414176,4106113
18,"JONGSMA, OLKE ANDRIES",248 COUNTY ROAD 4310 WINNSBORO,TX,75494,33.957833,-95.263166,Dairy cattle,CATTLE (Dairy);,SIS0241, ,4447, ,4447, ,Relocated,-10604616,3889537
19,"LASATER, WILLIAM MCKENDR",645 COUNTY ROAD 617 HAMILTON,TX,76531,31.700833,-98.310833,Dairy cattle,CATTLE (Dairy);,SIS0241, ,5626, ,5626, , ,-10943462,3723899
20,"LAGESCHAAR, ERWIN BERNARDES",295 COUNTY ROAD 2382 PICKTON,TX,75471,33.0585,-95.345666,Dairy cattle,CATTLE (Dairy);,SIS0241, ,503, ,503, , ,-10614086,3903293
21,J & J DIARY,4325 COUNTY ROAD 309 DUBLIN,TX,76446,32.001666,-98.3005,Dairy cattle,CATTLE (Dairy);,SIS0241, ,12775, ,12775, , ,-10942762,3763530
22,"HOGAN, HEATH DWAYNE",4317 COUNTY ROAD 1116 CLEBURNE,TX,76033,32.301666,-97.461666,Dairy cattle,CATTLE (Dairy);,SIS0241, ,1878, ,1878, , ,-10849590,3803195
23,"JENSEMA, AREND HOMMO",4045 COUNTY ROAD 4712 CUMBY,TX,75433,33.146388,-95.775,Dairy cattle,CATTLE (Dairy);,SIS0241, ,2254, ,2254, ,Relocaated,-10661388,3915994
24,"DEBOER, NICO JAAP",7880 E STATE HIGHWAY 154 WINNSBORO,TX,75494,32.761905,-95.170065,Dairy cattle,CATTLE (Dairy);,SIS0241, ,7039, ,7039, , ,-10594284,3863744
25,"MAYFIELD, HARVEY",2855 COUNTY ROAD 370 DUBLIN,TX,76446,32.2225,-98.401111,Dairy cattle,CATTLE (Dairy);,SIS0241, ,3752, ,3752, , ,-10954121,3792291
26,"JACOBS, ANTOON",925 Private Road 6342 SULPHUR SPRINGS,TX,75482,33.083611,-95.432777,Dairy cattle,CATTLE (Dairy);,SIS0241, ,930, ,930, ,Relocated,-10624859,3909873
27,KEMPENAAR REAL ESTATE LTD,3362 COUNTY ROAD 2346 COMO,TX,75431,33.080833,-95.41,Dairy cattle,CATTLE (Dairy);,SIS0241, ,17784, ,17784, , ,-10620993,3906039
28,"VAN RIJN, PETRUS HUBERTUS",1239 COUNTY ROAD 3363 SALTILLO,TX,75478,33.1255,-95.338383,Dairy cattle,CATTLE (Dairy);,SIS0241, ,2344, ,2344, , ,-10613442,3912443
29,"PLANTINGA, DOUWE",2492 FARM ROAD 900 W MOUNT VERNON,TX,75457,33.1,-95.283333,Dairy cattle,CATTLE (Dairy);,SIS0241, ,3455, ,3455, , ,-10606911,3908295
30,"VAN RIJN, PETRUS HUBERTUS",328 COUNTY ROAD 2346 COMO,TX,75431,33.089,-95.419,Dairy cattle,CATTLE (Dairy);,SIS0241, ,2625, ,2625, ,Relocated,-10621896,3907922
31,"HANNA, DOROTHY EVANS",4920 W FM 917 GODLEY,TX,76044,32.456666,-97.474666,Dairy cattle,CATTLE (Dairy);,SIS0241, ,2441, ,2441, , ,-10850831,3823406
32,"NORWOOD, EDWARD EUGENE",81 COUNTY ROAD 333 GOLDTHWAITE,TX,76844,31.427426,-98.386544,Dairy cattle,CATTLE (Dairy);,SIS0241, ,10516, ,10516, , ,-10952341,3688385
33,"OSINGA, FRANS BINNERT",3409 COUNTY ROAD 434 DUBLIN,TX,76446,32.009716,-98.431,Dairy cattle,CATTLE (Dairy);,SIS0241, ,6700, ,6700, , ,-10957422,3764802
34,"HOEKMAN, GERARD",901 FM 591 DUBLIN,TX,76446,31.896388,-98.374166,Dairy cattle,CATTLE (Dairy);,SIS0241, ,9512, ,9512, , ,-10950963,3749718
35,"STEENBEEK, JENTJI",164 COUNTY ROAD 3344 PICKTON,TX,75471,33.12493,-95.3869,Dairy cattle,CATTLE (Dairy);,SIS0241, ,154, ,154, , ,-10618422,3911899
36,"STRONA, ROBERT WILLIAM",4898 FM 934 ITASCA,TX,76055,31.5921,-97.623,Dairy cattle,CATTLE (Dairy);,SIS0241, ,5634, ,5634, ,Relocated,-10809690,3784155
37,D-S-M DAIRY FARMS INC,11 PRIVATE ROAD 337 GOLDTHWAITE,TX,76844,31.440833,-98.376944,Dairy cattle,CATTLE (Dairy);,SIS0241, ,4185, ,4185, ,Relocated,-10950703,3689600
38,"STEINBERGER, ROBERT EUGENE",1 MONCREATH RD WINDTHORST,TX,76389,33.5625,-98.443666,Dairy cattle,CATTLE (Dairy);,SIS0241, ,3752, ,3752, , ,-10958700,3970207
39,VISTA GRANDE DAIRY LTD CO,1505 CR Y PLAINVIEW,TX,79072,34.106666,-101.67694,Dairy cattle,CATTLE (Dairy);,SIS0241, ,25667, ,25667, , ,-11318626,4043134
40,"DEMPSEY, GARY MICHAEL",1430 COUNTY ROAD 395 DUBLIN,TX,76446,32.263833,-98.4245,Dairy cattle,CATTLE (Dairy);,SIS0241, ,2254, ,2254, ,Relocated,-10956720,3797019
41,"SCHIEVINK, JOCHUM",3066 COUNTY ROAD 285 DUBLIN,TX,76446,31.960333,-98.238666,Dairy cattle,CATTLE (Dairy);,SIS0241, ,4507, ,4507, , ,-10935861,3757968
42,FOX DAIRY LTD,1241 W US HIGHWAY 70 PLAINVIEW,TX,79072,34.180833,-101.87805,Dairy cattle,CATTLE (Dairy);,SIS0241, ,27777, ,27777, , ,-11341014,4053110
43,J & S DAIRIES LLC,1260 COUNTY ROAD 1038 MULESHOE,TX,79347,34.252777,-102.81944,Dairy cattle,CATTLE (Dairy);,SIS0241, ,11213, ,11213, , ,-11446028,4063376
44,"STEWARD, MICHAEL G",355 COUNTY ROAD 252 GUSTINE,TX,76455,31.779444,-98.428333,Dairy cattle,CATTLE (Dairy);,SIS0241, ,3130, ,3130, , ,-10956993,3734395
45,NORTHSIDE FARMS LLC,4550 COUNTY ROAD I DALHART,TX,79022,35.943611,-102.26888,Dairy cattle,CATTLE (Dairy);,SIS0241, ,43800, ,43800, , ,-11384521,4292866
46,TWIN LAKES DAIRY LP,2201 FM 1861 BEN WHEELER,TX,75754,32.407433,-95.791883,Dairy cattle,CATTLE (Dairy);,SIS0241, ,6276, ,6276, ,Relocated,-10662816,3814578
47,"BOSMA, YME KLAAS",5901 FM 1689 MAY,TX,76857,31.981166,-98.883333,Dairy cattle,CATTLE (Dairy);,SIS0241, ,9522, ,9522, , ,-11007643,3760839
48,"VAN DIEDEN, ARNE",1387 COUNTY ROAD SW 3190 WINNSBORO,TX,75494,33.066666,-95.3,Dairy cattle,CATTLE (Dairy);,SIS0241, ,4066, ,4066, ,Relocated,-10605731,3868660
49,"BEUKEBOOM, FRANS",3541 COUNTY ROAD 336 DUBLIN,TX,76446,32.048055,-98.358055,Dairy cattle,CATTLE (Dairy);,SIS0241, ,7005, ,7005, , ,-10949169,3769621
50,LORRAINE LAND LLC,1741 COUNTY ROAD 353 DUBLIN,TX,76446,31.968055,-98.254166,Dairy cattle,CATTLE (Dairy);,SIS0241, ,17794, ,17794, , ,-10937329,3759887
51,SUNDANCE DAIRY LLC,1741 COUNTY ROAD 353 DUBLIN,TX,76446,31.968055,-98.254166,Dairy cattle,CATTLE (Dairy);,SIS0241, ,17794, ,17794, , ,-10937329,3759887
52,"BRAND, ELTJE FRANS","FM1702, Gustine, TX 76455, USA",TX,76452,31.766666,-98.366666,Dairy cattle,CATTLE (Dairy);,SIS0241, ,10859, ,10859, , ,-10949965,3732418
53,"BRAND, ELTJE FRANS",14750 HIGHWAY 16 COMANCHE,TX,76442,31.858611,-98.605,Dairy cattle,CATTLE (Dairy);,SIS0241, ,18028, ,18028, , ,-10976659,3744766
54,POSTMUS DAIRY LLC,2855 COUNTY ROAD 310 DUBLIN,TX,76446,31.9725,-98.303055,Dairy cattle,CATTLE (Dairy);,SIS0241, ,13578, ,13578, , ,-10943047,3759702
55,"HANCOCK, LAWRENCE ALAN",513 COUNTY ROAD 123 MULESHOE,TX,79347,34.2375,-102.82861,Dairy cattle,CATTLE (Dairy);,SIS0241, ,12724, ,12724, , ,-11446830,4060738
56,TJ DAIRY PARTNERS,"FM 37, Amherst, TX 79312, USA",TX,79312,33.992222,-102.42305,Dairy cattle,CATTLE (Dairy);,SIS0241, ,19097, ,19097, , ,-11401683,4027758
57,VB RANCH LLC,"Co Rd 519, Hart, TX 79043, USA",TX,79043,34.3625,-102.22055,Dairy cattle,CATTLE (Dairy);,SIS0241, ,35347, ,35347, , ,-11379141,4077582
58,WHITE RIVER RANCH LLC,"Co Rd 519, Hart, TX 79043, USA",TX,79043,34.3625,-102.22055,Dairy cattle,CATTLE (Dairy);,SIS0241, ,35347, ,35347, , ,-11379141,4077582
59,MT MCCLOY FARMS LLC,"Ranch Rd 1598, Morse",TX,79062,35.948333,-101.48944,Dairy cattle,CATTLE (Dairy);,SIS0241, ,18764, ,18764, ,Unidentifiable,-11301627,4294870
60,"SCHOUTEN, MICHAEL JAMES",3850 COUNTY ROAD 21 HEREFORD,TX,79045,35.048611,-102.375,Dairy cattle,CATTLE (Dairy);,SIS0241, ,63948, ,63948, , ,-11396334,4170490
61,"VANDEPOL, JOHN MARIUS",1563 FM 2479 AMHERST,TX,79312,34.097222,-102.36805,Dairy cattle,CATTLE (Dairy);,SIS0241, ,19388, ,19388, , ,-11395560,4041865
62,"VANDEPOL, SUSAN",1563 FM 2479 AMHERST,TX,79312,34.097222,-102.36805,Dairy cattle,CATTLE (Dairy);,SIS0241, ,19388, ,19388, , ,-11395560,4041865
63,LEGACY FARMS LP,1151 COUNTY ROAD AA PLAINVIEW,TX,79072,34.159722,-101.635,Dairy cattle,CATTLE (Dairy);,SIS0241, ,39639, ,39639, , ,-11313957,4050270
64,LEGACY DAIRY FARMS LTD,1151 COUNTY ROAD AA PLAINVIEW,TX,79072,34.159722,-101.635,Dairy cattle,CATTLE (Dairy);,SIS0241, ,39639, ,39639, , ,-11313957,4050270
65,"SMULDERS, JOOST",4200 FM 3422 DALHART,TX,79022,35.928055,-102.33527,Dairy cattle,CATTLE (Dairy);,SIS0241, ,42048, ,42048, , ,-11391460,4291324
66,"DEVUYST, RICHARD",12618 US HIGHWAY 60 PAMPA,TX,79065,35.54586,-100.84202,Dairy cattle,CATTLE (Dairy);,SIS0241, ,21864, ,21864, , ,-11225683,4238312
67,HILLTOP DAIRY LLC,690 COUNTY ROAD 45 EARTH,TX,79031,34.228888,-102.59861,Dairy cattle,CATTLE (Dairy);,SIS0241, ,6360, ,6360, , ,-11421226,4059578
68,"WATERLANDER, HARMEN",769 PRIVATE ROAD 973 DUBLIN,TX,76446,32.258466,-98.493983,Dairy cattle,CATTLE (Dairy);,SIS0241, ,3312, ,3312, , ,-10963925,3797613
69,"MOERMAN, WAYNE",250 COUNTY ROAD 105 COMANCHE,TX,76442,31.93,-98.66,Dairy cattle,CATTLE (Dairy);,SIS0241, ,18028, ,18028, , ,-10982782,3754126
70,"DEGROOT, EGBERT JIM",1420 HIGHWAY 86 BOVINA,TX,79009,34.521111,-102.78916,Dairy cattle,CATTLE (Dairy);,SIS0241, ,16097, ,16097, , ,-11442855,4099252
71,"HUMPHREY, MARK","198 FM1567, Como, TX 75431, USA",TX,75431,33.069722,-95.504444,Dairy cattle,CATTLE (Dairy);,SIS0241, ,523, ,523, , ,-10631622,3904653
72,"OPITZ, SCOTT",1021 FM 1651 CANTON,TX,75103,32.477333,-95.863388,Dairy cattle,CATTLE (Dairy);,SIS0241, ,1016, ,1016, , ,-10671464,3826133
73,"OPITZ, SCOTT",1021 FM 1651 CANTON,TX,75103,32.477333,-95.863388,Dairy cattle,CATTLE (Dairy);,SIS0241, ,1016, ,1016, , ,-10671464,3826133
74,HEIFER RANCH AT ARROYO SECO LTD,1767 FM 2337 HALE CENTER,TX,79041,34.07,-101.7625,Dairy cattle,CATTLE (Dairy);,SIS0241, ,52378, ,52378, , ,-11328151,4038206
75,"AZUA, MANUEL SILVA",3440 COUNTY ROAD 401 DUBLIN,TX,76446,32.262,-98.4025,Dairy cattle,CATTLE (Dairy);,SIS0241, ,1502, ,1502, , ,-10954117,3797752
76,DALHART JERSEY RANCH INC,1550 FM 1727 DALHART,TX,79022,36.080833,-102.77638,Dairy cattle,CATTLE (Dairy);,SIS0241, ,35867, ,35867, , ,-11441011,4311546
77,"HETTINGA, HEIN","950 Ranch Rd 145, Farwell, TX 79325, USA",TX,79325,34.377222,-102.89833,Dairy cattle,CATTLE (Dairy);,SIS0241, ,12410, ,12410, , ,-11454591,4079568
78,"SCHOUTEN, PETER HENRY SR",134 PRIVATE ROAD 1246 STEPHENVILLE,TX,76401,32.147777,-97.995833,Dairy cattle,CATTLE (Dairy);,SIS0241, ,3737, ,3737, , ,-10908050,3782775
79,"SCHOUTEN, NOVA DARLENE",134 PRIVATE ROAD 1246 STEPHENVILLE,TX,76401,32.147777,-97.995833,Dairy cattle,CATTLE (Dairy);,SIS0241, ,3737, ,3737, , ,-10908050,3782775
80,S-COW-10 DAIRY LLC,134 PRIVATE ROAD 1246 STEPHENVILLE,TX,76401,32.147777,-97.995833,Dairy cattle,CATTLE (Dairy);,SIS0241, ,3737, ,3737, , ,-10908050,3782775
81,SKYWARD DAIRY,3850 COUNTY ROAD G DALHART,TX,79022,35.963333,-102.39777,Dairy cattle,CATTLE (Dairy);,SIS0241, ,13801, ,13801, , ,-11398869,4295578
82,"WEST, RONNIE DEWAYNE",2324 N COUNTY ROAD 1226 GODLEY,TX,76044,32.3525,-97.533333,Dairy cattle,CATTLE (Dairy);,SIS0241, ,2441, ,2441, , ,-10857199,3810053
83,"GUESS, MARK",2747 COUNTY ROAD 28 FRIONA,TX,79085,34.693611,-102.36222,Dairy cattle,CATTLE (Dairy);,SIS0241, ,15485, ,15485, ,Relocated,-11415289,4122337
84,"VANDERHAM, RONALD HUBERT",2300 COUNTY ROAD 628 HART,TX,79043,34.348333,-102.14861,Dairy cattle,CATTLE (Dairy);,SIS0241, ,38419, ,38419, , ,-11371132,4075672
85,"VANDERHAM, CHERYLEE",2300 COUNTY ROAD 628 HART,TX,79043,34.348333,-102.14861,Dairy cattle,CATTLE (Dairy);,SIS0241, ,38419, ,38419, , ,-11371132,4075672
86,"VANDERHAM, ZACHARY SCOTT",2300 COUNTY ROAD 628 HART,TX,79043,34.348333,-102.14861,Dairy cattle,CATTLE (Dairy);,SIS0241, ,38419, ,38419, , ,-11371132,4075672
87,DEER CREEK FEEDING LLC,13401 US HIGHWAY 385 DALHART,TX,79022,36.233333,-102.54111,Dairy cattle,CATTLE (Dairy);,SIS0241, ,59075, ,59075, , ,-11414825,4332776
88,BALL LAND LLLP,13401 US HIGHWAY 385 DALHART,TX,79022,36.233333,-102.54111,Dairy cattle,CATTLE (Dairy);,SIS0241, ,59075, ,59075, , ,-11414825,4332776
89,COUNTY LINE DAIRY LLC,"Co Rd 1043, Muleshoe, TX 79347, USA",TX,79347,34.251388,-102.63111,Dairy cattle,CATTLE (Dairy);,SIS0241, ,13286, ,13286, , ,-11425039,4062719
90,"MIDDLETON, BOBBY JR",650 RS COUNTY ROAD 4410 POINT,TX,75472,32.953333,-95.788333,Dairy cattle,CATTLE (Dairy);,SIS0241, ,262, ,262, ,Relocated,-10663558,3889851
91,"DYKSTERHUIS, EVERT",1589 COUNTY ROAD 510 DIMMITT,TX,79027,34.5175,-102.36361,Dairy cattle,CATTLE (Dairy);,SIS0241, ,12001, ,12001, , ,-11395066,4098504
92,"UNTIEDT, MARIA",1589 COUNTY ROAD 510 DIMMITT,TX,79027,34.5175,-102.36361,Dairy cattle,CATTLE (Dairy);,SIS0241, ,12001, ,12001, , ,-11395066,4098504
93,"SKILES, CLIFFORD ALCIE JR",12309 FM 807 DALHART,TX,79022,36.1,-102.25,Dairy cattle,CATTLE (Dairy);,SIS0241, ,52378, ,52378, , ,-11381763,4313093
94,"HAAKMA, ERIC",640 COUNTY ROAD DD FARWELL,TX,79325,34.33032,-102.92676,Dairy cattle,CATTLE (Dairy);,SIS0241, ,17870, ,17870, , ,-11457756,4073243
95,"DE BOER, DIRK",338 COUNTY ROAD 4507 DE KALB,TX,75559,33.363333,-94.688333,Dairy cattle,CATTLE (Dairy);,SIS0241, ,6083, ,6083, , ,-10540205,3943664
96,"VOLLEMAN, FRANK",259 COUNTY ROAD 324 COMANCHE,TX,76442,31.881916,-98.501722,Dairy cattle,CATTLE (Dairy);,SIS0241, ,1833, ,1833, , ,-10965162,3747821
97,LONE STAR CALF RANCH LP,4103 COUNTY RD E HEREFORD,TX,79045,34.891944,-102.31222,Dairy cattle,CATTLE (Dairy);,SIS0241, ,75323, ,75323, , ,-11389345,4149207
98,"JACOBS, JOHANNA",1088 COUNTY ROAD 2341 SULPHUR SPRINGS,TX,75482,33.111388,-95.463055,Dairy cattle,CATTLE (Dairy);,SIS0241, ,1541, ,1541, , ,-10626899,3910099
99,LOMA VISTA DAIRY INC,"I-10, Fort Hancock, TX 79839, USA",TX,79839,31.235555,-105.78694,Dairy cattle,CATTLE (Dairy);,SIS0241, ,6315, ,6315, , ,-11776022,3663022
100,HANSEN FARMING APS,"12766 Co Rd 10, Perryton, TX 79070, USA",TX,79070,36.151111,-100.90166,Dairy cattle,CATTLE (Dairy);,SIS0241, ,2414, ,2414, , ,-11232888,4322151
101,"KOKE, JOHAN GERRIT","19341 FM 219, Dublin, TX 76446, USA",TX,79446,32.226388,-98.372777,Dairy cattle,CATTLE (Dairy);,SIS0241, ,1815.78, ,1815.78, , ,-10950808,3793065
102,FULL CIRCLE JERSEYS,3000 BEACH LN DALHART,TX,79022,36.13436,-102.53099,Dairy cattle,CATTLE (Dairy);,SIS0241, ,19270, ,19270, , ,-11413699,4319126
103,"HARRIS, JERRY DEAN",23200 COUNTY ROAD 441 RISING STAR,TX,76471,32.051944,-98.960555,Dairy cattle,CATTLE (Dairy);,SIS0241, ,6661, ,6661, , ,-11016239,3770132
104,A-TEX DAIRY LLC,2076 HIGHWAY 86 FRIONA,TX,79035,34.525833,-102.67888,Dairy cattle,CATTLE (Dairy);,SIS0241, ,32040, ,32040, , ,-11430251,4098766
105,"HANCOCK, LAWRENCE ALAN","Co Rd 123, Muleshoe, TX 79347, USA",TX,79347,34.228055,-102.82083,Dairy cattle,CATTLE (Dairy);,SIS0241, ,16649, ,16649, , ,-11445963,4059466
106,"HOGG, ROBERT DAVID","Co Rd 1021, Benjamin, TX 79505, USA",TX,76903,33.555833,-99.793803,Dairy cattle,CATTLE (Dairy);,SIS0241, ,21741, ,21741, ,Relocated,-11109456,3972712
107,"BRAND, ELTJE FRANS","Co Rd 516, Dimmitt, TX 79027, USA",TX,79027,34.40177,-102.27798,Dairy cattle,CATTLE (Dairy);,SIS0241, ,97090, ,97090, , ,-11384256,4082979
108,"BRAND, JONIE ANN","Co Rd 516, Dimmitt, TX 79027, USA",TX,79027,34.40177,-102.27798,Dairy cattle,CATTLE (Dairy);,SIS0241, ,97090, ,97090, , ,-11384256,4082979
109,CAPROCK DAIRY LLC,160 COUNTY ROAD 50 MULESHOE,TX,79347,34.284166,-102.601944,Dairy cattle,CATTLE (Dairy);,SIS0241, ,26244, ,26244, , ,-11421597,4067023
110,WESTSIDE DAIRY,1061 FM 303 BROWNFIELD,TX,79316,33.24489,-102.41638,Dairy cattle,CATTLE (Dairy);,SIS0241, ,11169, ,11169, , ,-11400940,3927855
111,D & J DAIRY,"Rd 16th, Hereford, TX 79045, USA",TX,79045,34.965555,-102.5,Dairy cattle,CATTLE (Dairy);,SIS0241, ,74110, ,74110, , ,-11410249,4159202
112,STAR DAIRIES LLC,976 FARM ROAD 3426 PARIS,TX,75462,33.534722,-95.484444,Dairy cattle,CATTLE (Dairy);,SIS0241, ,7511, ,7511, , ,-10629645,3967006
113,DAISY FARMS LLC,4482 HIGHWAY 24 PARIS,TX,75460,33.573333,-95.587777,Dairy cattle,CATTLE (Dairy);,SIS0241, ,53550, ,53550, , ,-10640631,3971798
114,"MOERMAN, WAYNE",500 COUNTY ROAD 102 COMANCHE,TX,76442,31.916666,-98.616666,Dairy cattle,CATTLE (Dairy);,SIS0241, ,5116, ,5116, ,Relocated,-10979746,3753758
115,SUMMIT DAIRY,1260 VZ COUNTY ROAD 2301 CANTON,TX,75103,32.45217,-95.90439,Dairy cattle,CATTLE (Dairy);,SIS0241, ,1016, ,1016, , ,-10675863,3822693
116,"COLLIER, WILL",3300 COUNTY ROAD 461 SNYDER,TX,79549,32.683333,-100.816666,Dairy cattle,CATTLE (Dairy);,SIS0241, ,18417, ,18417, , ,-11222861,3853347
117,PRESIDIO FARMS LLC,2180 FM 145 MULESHOE,TX,79347,34.3841,-102.6682,Dairy cattle,CATTLE (Dairy);,SIS0241, ,20531, ,20531, , ,-11428973,4080495
118,RJ DAIRY LLC,4366 COUNTY ROAD 340 DUBLIN,TX,76446,32.077777,-98.393611,Dairy cattle,CATTLE (Dairy);,SIS0241, ,4600, ,4600, , ,-10952325,3773444
119,"RODRIGUEZ, ARTURO",4366 COUNTY ROAD 340 DUBLIN,TX,76446,32.077777,-98.393611,Dairy cattle,CATTLE (Dairy);,SIS0241, ,4600, ,4600, , ,-10952325,3773444
120,"JIMENEZ, HECTOR",4366 COUNTY ROAD 340 DUBLIN,TX,76446,32.077777,-98.393611,Dairy cattle,CATTLE (Dairy);,SIS0241, ,4600, ,4600, , ,-10952325,3773444
121,"SUSTAIRE, MARK BRENT",344 COUNTY ROAD 3373 WINNSBORO,TX,75494,33.101944,-95.321388,Dairy cattle,CATTLE (Dairy);,SIS0241, ,1878, ,1878, , ,-10610865,3909102
122,"DAVIS, GARRY CLYDE",708 COUNTY ROAD 220 COMANCHE,TX,76442,31.859722,-98.501111,Dairy cattle,CATTLE (Dairy);,SIS0241, ,2694, ,2694, , ,-10965094,3744912
123,"VOLLEMAN, FRANK",708 COUNTY ROAD 220 COMANCHE,TX,76442,31.859722,-98.501111,Dairy cattle,CATTLE (Dairy);,SIS0241, ,2694, ,2694, , ,-10965094,3744912
124,COLDWATER DAIRY LLC,5490 COUNTY ROAD Y STRATFORD,TX,79084,36.146388,-102.095555,Dairy cattle,CATTLE (Dairy);,SIS0241, ,28288, ,28288, , ,-11365226,4320784
125,AURORA ORGANIC FARMS INC,5490 COUNTY ROAD Y STRATFORD,TX,79084,36.146388,-102.095555,Dairy cattle,CATTLE (Dairy);,SIS0241, ,28288, ,28288, , ,-11365226,4320784
126,COLDWATER DAIRY LLC,5490 COUNTY ROAD Y STRATFORD,TX,79084,36.146388,-102.111666,Dairy cattle,CATTLE (Dairy);,SIS0241, ,22630, ,22630, , ,-11367020,4320784
127,AURORA ORGANIC FARMS INC,5490 COUNTY ROAD Y STRATFORD,TX,79084,36.146388,-102.111666,Dairy cattle,CATTLE (Dairy);,SIS0241, ,22630, ,22630, , ,-11367020,4320784
128,"COENEN, WILHELMUS",976 COUNTY ROAD NW 1015 MOUNT VERNON,TX,75457,33.2,-95.284166,Dairy cattle,CATTLE (Dairy);,SIS0241, ,3752, ,3752, , ,-10606986,3921882
129,"DIPPLE, GERALD BENTON JR",4519 COUNTY ROAD 340 DUBLIN,TX,76446,32.075555,-98.385833,Dairy cattle,CATTLE (Dairy);,SIS0241, ,13624, ,13624, , ,-10952262,3773233
130,AURORA ORGANIC FARMS INC,4519 COUNTY ROAD 340 DUBLIN,TX,76446,32.075555,-98.385833,Dairy cattle,CATTLE (Dairy);,SIS0241, ,13624, ,13624, , ,-10952262,3773233
131,"NYMAN, BRADFORD ELOF",4050 FM 297 DALHART,TX,79022,36.05,-102.333333,Dairy cattle,CATTLE (Dairy);,SIS0241, ,62579, ,62579, , ,-11392653,4307991
132,G-2 PRODUCERS,4050 FM 297 DALHART,TX,79022,36.05,-102.333333,Dairy cattle,CATTLE (Dairy);,SIS0241, ,62579, ,62579, , ,-11392653,4307991
133,"AHLEM, MARK",4050 FM 297 DALHART,TX,79022,36.05,-102.333333,Dairy cattle,CATTLE (Dairy);,SIS0241, ,62579, ,62579, , ,-11392653,4307991
134,"FOUST, CHAD",3933 WOODARD AVE CLEBURNE,TX,76033,32.333055,-97.4625,Dairy cattle,CATTLE (Dairy);,SIS0241, ,1502, ,1502, , ,-10849477,3807110
135,SPRINGLAKE DAIRY LLC,1551 US HIGHWAY 385 AMHERST,TX,79312,34.098888,-102.32222,Dairy cattle,CATTLE (Dairy);,SIS0241, ,10775, ,10775, , ,-11390458,4042089
136,BUGTUSSLE CATTLE LLC,3001 US HIGHWAY 385 DIMMITT,TX,79027,34.320278,-102.303889,Dairy cattle,CATTLE (Dairy);,SIS0241, ,13359, ,13359, , ,-11388326,4071515
137,CIRCLE T DAIRY LLC,5555 US HIGHWAY 385 HEREFORD,TX,79045,35.095752,-102.404053,Dairy cattle,CATTLE (Dairy);,SIS0241, ,15330, ,15330, , ,-11399568,4176902
138,MORNING STAR DAIRY LLC,801 FM 694 DALHART,TX,79022,36.032777,-102.66972,Dairy cattle,CATTLE (Dairy);,SIS0241, ,69759, ,69759, , ,-11429142,4305133
139,GERALD AND MARY OSTERKAMP FAMILY TRUST,770 COUNTY ROAD 1038 MULESHOE,TX,79347,34.256388,-102.89805,Dairy cattle,CATTLE (Dairy);,SIS0241, ,16053, ,16053, , ,-11454560,4063282
140,STONEGATE FARMS FAMILY LIMITED PARTNERSHIP,770 COUNTY ROAD 1038 MULESHOE,TX,79347,34.256388,-102.89805,Dairy cattle,CATTLE (Dairy);,SIS0241, ,16053, ,16053, , ,-11454560,4063282
141,"HARVICK, KENNETH",151 COUNTY ROAD 210 COMANCHE,TX,76442,31.883166,-98.591166,Dairy cattle,CATTLE (Dairy);,SIS0241, ,9289, ,9289, , ,-10975119,3747985
142,CAPROCK DAIRY LLC,1935 FM 2479 AMHERST,TX,79312,34.046111,-102.365555,Dairy cattle,CATTLE (Dairy);,SIS0241, ,11957, ,11957, , ,-11395282,4034996
143,"VAN DER JAGT, ADRIAAN",3415 FM 1567 E COMO,TX,75431,33.030166,-95.502333,Dairy cattle,CATTLE (Dairy);,SIS0241, ,3318, ,3318, , ,-10631489,3899463
144,BEATTIE CATTLE LLC,408 COUNTY ROAD 116 COMANCHE,TX,76442,32.036388,-98.704444,Dairy cattle,CATTLE (Dairy);,SIS0241, ,8760, ,8760, , ,-10987729,3768089
145,"ADAMS, DALTON","1498 Co Rd 4744, Sulphur Springs, TX 75482, USA",TX,75482,33.228055,-95.74,Dairy cattle,CATTLE (Dairy);,SIS0241, ,407, ,407, , ,-10657729,3925615
146,"MARTINEZ, EVODIO","1498 Co Rd 4744, Sulphur Springs, TX 75482, USA",TX,75482,33.228055,-95.74,Dairy cattle,CATTLE (Dairy);,SIS0241, ,407, ,407, , ,-10657729,3925615
147,WILDCAT DAIRY LLC,600 COUNTY ROAD 252 GUSTINE,TX,76455,31.78611,-98.44111,Dairy cattle,CATTLE (Dairy);,SIS0241, ,30751, ,30751, , ,-10958415,3735268
148,HEMINK FARMS LTD,2101 FM 1172 FRIONA,TX,79035,34.593333,-102.60861,Dairy cattle,CATTLE (Dairy);,SIS0241, ,23258, ,23258, , ,-11422339,4108754
149,SPANDET DAIRY LLC,2101 FM 1172 FRIONA,TX,79035,34.593333,-102.60861,Dairy cattle,CATTLE (Dairy);,SIS0241, ,23258, ,23258, , ,-11422339,4108754
150,KNOLLE REAL ESTATE LTD,940 COUNTY ROAD 360 SANDIA,TX,78383,28.011666,-97.833333,Dairy cattle,CATTLE (Dairy);,SIS0241, ,712.7, ,712.7, , ,-10890627,3250171
151,"KNOLLE JR, JOSEPH THOMAS",940 COUNTY ROAD 360 SANDIA,TX,78383,28.011666,-97.833333,Dairy cattle,CATTLE (Dairy);,SIS0241, ,712.7, ,712.7, , ,-10890627,3250171
152,KNOLLE INVESTMENTS LTD,940 COUNTY ROAD 360 SANDIA,TX,78383,28.011666,-97.833333,Dairy cattle,CATTLE (Dairy);,SIS0241, ,712.7, ,712.7, , ,-10890627,3250171
153,"MOORE, TODD ANDREW",2795 W FM 2795 EMORY,TX,75440,32.906944,-95.791111,Dairy cattle,CATTLE (Dairy);,SIS0241, ,1047, ,1047, , ,-10663419,3882960
154,"BEUKEBOOM, FRANS",829 PRIVATE ROAD 1367 DUBLIN,TX,76446,32.045,-98.356666,Dairy cattle,CATTLE (Dairy);,SIS0241, ,1878, ,1878, , ,-10949015,3769220
155,"BUSBY, JERRY MACK","4350 Co Rd 2310, Sulphur Springs, TX 75482, USA",TX,75483,33.129444,-95.473611,Dairy cattle,CATTLE (Dairy);,SIS0241, ,2817, ,2817, , ,-10629596,3911849
156,"NYMAN, BRADFORD ELOF",5182 W ROAD R DUMAS,TX,79029,35.80256,-102.14573,Dairy cattle,CATTLE (Dairy);,SIS0241, ,13239, ,13239, , ,-11370812,4273489
157,G-2 PRODUCERS,5182 W ROAD R DUMAS,TX,79029,35.80256,-102.14573,Dairy cattle,CATTLE (Dairy);,SIS0241, ,13239, ,13239, , ,-11370812,4273489
158,"AHLEM, MARK",5182 W ROAD R DUMAS,TX,79029,35.80256,-102.14573,Dairy cattle,CATTLE (Dairy);,SIS0241, ,13239, ,13239, , ,-11370812,4273489
159,"HOSTETLER, PERRY",1160 COUNTY ROAD 3310 PICKTON,TX,75471,32.108,-95.368,Dairy cattle,CATTLE (Dairy);,SIS0241, ,3923, ,3923, , ,-10616286,3777858
160,ETTER DAIRY LLC,5537 FM 281 DUMAS,TX,79013,36.018888,-102.04972,Dairy cattle,CATTLE (Dairy);,SIS0241, ,20840, ,20840, , ,-11359599,4302383
161,DUMAS DAIRY LLC,10920 N HUNT RD DUMAS,TX,79029,35.869722,-102.07027,Dairy cattle,CATTLE (Dairy);,SIS0241, ,18396, ,18396, , ,-11362411,4282711
162,"STAUDE, JOSEPH OWEN III",2194 COUNTY ROAD 396 DUBLIN,TX,76446,32.2833,-98.4333,Dairy cattle,CATTLE (Dairy);,SIS0241, ,2625, ,2625, , ,-10959225,3800419
163,"VAN RUITEN, BART",2194 COUNTY ROAD 396 DUBLIN,TX,76446,32.2833,-98.4333,Dairy cattle,CATTLE (Dairy);,SIS0241, ,2625, ,2625, , ,-10959225,3800419
164,BLACK RIDGE DAIRY LLC,2676 COUNTY ROAD 23 FRIONA,TX,79035,34.6825,-102.63,Dairy cattle,CATTLE (Dairy);,SIS0241, ,16250, ,16250, , ,-11424720,4120818
165,VACACO LLC,2676 COUNTY ROAD 23 FRIONA,TX,79035,34.6825,-102.63,Dairy cattle,CATTLE (Dairy);,SIS0241, ,16250, ,16250, , ,-11424720,4120818
166,"CARTER, RICHARD",366 FM 1760 MULESHOE,TX,79347,34.244722,-102.98111,Dairy cattle,CATTLE (Dairy);,SIS0241, ,12155, ,12155, , ,-11463806,4061711
167,"CARTER, STACEY",366 FM 1760 MULESHOE,TX,79347,34.244722,-102.98111,Dairy cattle,CATTLE (Dairy);,SIS0241, ,12155, ,12155, , ,-11463806,4061711
168,NATURAL PRAIRIE DAIRY FARMS LLC,"Unnamed Road, Texas, USA",TX,79018,35.788333,-102.315,Dairy cattle,CATTLE (Dairy);,SIS0241, ,72358, ,72358, , ,-11390312,4270432
169,NATURAL PRAIRIE LAND COMPANY LLC,"Unnamed Road, Texas, USA",TX,79018,35.788333,-102.315,Dairy cattle,CATTLE (Dairy);,SIS0241, ,72358, ,72358, , ,-11391694,4271882
170,NATURAL PRAIRIE DAIRY FARMS LLC,"10505 FM3138, Hartley, TX 79044, USA",TX,79044,35.83,-102.26,Dairy cattle,CATTLE (Dairy);,SIS0241, ,14965, ,14965, , ,-11383532,4277256
171,NATURAL PRAIRIE LAND COMPANY LLC,"10505 FM3138, Hartley, TX 79044, USA",TX,79044,35.83,-102.26,Dairy cattle,CATTLE (Dairy);,SIS0241, ,14965, ,14965, , ,-11383532,4277256
172,KRAUSE DAIRY LLC,1411 COUNTY ROAD 2332 COMO,TX,75431,33.075,-95.441666,Dairy cattle,CATTLE (Dairy);,SIS0241, ,3752, ,3752, , ,-10625117,3904252
173,KRAUSE DAIRY LLC,1411 COUNTY ROAD 2332 COMO,TX,75431,33.075,-95.441666,Dairy cattle,CATTLE (Dairy);,SIS0241, ,3752, ,3752, , ,-10625117,3904252
174,LINDA BEUKEBOOM,1867 COUNTY ROAD 337 DUBLIN,TX,76446,32.049333,-98.361666,Dairy cattle,CATTLE (Dairy);,SIS0241, ,11554, ,11554, , ,-10949868,3769289
175,BLUE SKY FARMS LLC,2450 HIGHWAY 86 FRIONA,TX,79035,34.525,-102.611,Dairy cattle,CATTLE (Dairy);,SIS0241, ,24331, ,24331, , ,-11422605,4099517
176,WESTSIDE JERSEYS LLC,5491 FM 281 DUMAS,TX,79029,36.0275,-102.0899,Dairy cattle,CATTLE (Dairy);,SIS0241, ,70689, ,70689, , ,-11364597,4304407
177,TULS LAND TEXAS LLC,450 US HIGHWAY 84 FARWELL,TX,79325,34.361666,-102.973888,Dairy cattle,CATTLE (Dairy);,SIS0241, ,13688, ,13688, , ,-11461767,4076154
178,NORTH STAR DAIRY LLC,"3511 FM1057, Hereford, TX 79045, USA",TX,79045,34.794444,-102.51666,Dairy cattle,CATTLE (Dairy);,SIS0241, ,4719, ,4719, , ,-11412103,4135983
179,FRONTIER FEEDLOT DUBLIN LLC,3075 COUNTY ROAD 340 DUBLIN,TX,76446,32.073333,-98.374444,Dairy cattle,CATTLE (Dairy);,SIS0241, ,58649, ,58649, , ,-10950994,3772941
180,"CROUCH, SHANNA",2366 FM 2156 DUBLIN,TX,76446,32.118666,-98.368,Dairy cattle,CATTLE (Dairy);,SIS0241, ,8774, ,8774, , ,-10950277,3778898
181,BLUE SKY FARMS LLC,2520 COUNTY ROAD S FRIONA,TX,79035,34.482272,-102.605456,Dairy cattle,CATTLE (Dairy);,SIS0241, ,18571, ,18571, , ,-11421988,4093745
182,"VAN DER JAGT, ADRIAAN",1741 COUNTY ROAD 1109 SULPHUR SPRINGS,TX,75482,33.083166,-95.674166,Dairy cattle,CATTLE (Dairy);,SIS0241, ,318, ,318, , ,-10650395,3905849
183,BLUE SKY FARMS LLC,"2450 FM168, Hart, TX 79043, USA",TX,79043,34.401666,-102.10916,Dairy cattle,CATTLE (Dairy);,SIS0241, ,32084, ,32084, , ,-11366741,4082865
184,KUIPER COWS LLC,1261 COUNTY ROAD 188 STEPHENVILLE,TX,76401,32.229166,-98.071666,Dairy cattle,CATTLE (Dairy);,SIS0241, ,3377, ,3377, , ,-10917301,3793745
185,"LLOYD, DAVID MICHAEL",10232 W FM 4 GODLEY,TX,76044,32.403333,-97.563666,Dairy cattle,CATTLE (Dairy);,SIS0241, ,2625, ,2625, , ,-10860738,3816372
186,"KAISER, ROD ALLEN",10232 W FM 4 GODLEY,TX,76044,32.403333,-97.563666,Dairy cattle,CATTLE (Dairy);,SIS0241, ,2625, ,2625, , ,-10860738,3816372
187,FIVE-TWO FARMS LLC,8660 FM 47 WILLS POINT,TX,75169,32.760555,-95.993055,Dairy cattle,CATTLE (Dairy);,SIS0241, ,13195, ,13195, , ,-10685899,3863565
188,GINGG BROS DAIRY LLC,8660 FM 47 WILLS POINT,TX,75169,32.760555,-95.993055,Dairy cattle,CATTLE (Dairy);,SIS0241, ,13195, ,13195, , ,-10685899,3863565
189,HARTLEY FARMS LLC,"FM2577, Dalhart, TX 79022, USA",TX,79044,36.0018,-102.3414,Dairy cattle,CATTLE (Dairy);,SIS0241, ,222674, ,222674, , ,-11392594,4300870
190,"OUD, GERDA",551 COUNTY ROAD 2449 PICKTON,TX,75471,33.084166,-95.391666,Dairy cattle,CATTLE (Dairy);,SIS0241, ,1219, ,1219, , ,-10618870,3907832
191,3-H DAIRY LLC,1140 US HIGHWAY 84 MULESHOE,TX,79347,34.294444,-102.83916,Dairy cattle,CATTLE (Dairy);,SIS0241, ,22995, ,22995, , ,-11448004,4068408
192,3-H DAIRY LLC,1140 US HIGHWAY 84 MULESHOE,TX,79347,34.294444,-102.83916,Dairy cattle,CATTLE (Dairy);,SIS0241, ,22995, ,22995, , ,-11448004,4068408
193,"OUD, GERDA",359 COUNTY ROAD 2347 PICKTON,TX,75471,33.0835,-95.396333,Dairy cattle,CATTLE (Dairy);,SIS0241, ,1482, ,1482, , ,-10619472,3906393
194,"CARRELL, ROY KING",9908 COUNTY ROAD 913 GODLEY,TX,76044,32.483833,-97.5585,Dairy cattle,CATTLE (Dairy);,SIS0241, ,1878, ,1878, , ,-10860163,3826991
195,"GOODLOE, ROBERT LYNN",9908 COUNTY ROAD 913 GODLEY,TX,76044,32.483833,-97.5585,Dairy cattle,CATTLE (Dairy);,SIS0241, ,1878, ,1878, , ,-10860163,3826991
196,JONGSMA FAMILY TRUST,2700 COUNTY ROAD 6 HEREFORD,TX,79045,34.807777,-102.58,Dairy cattle,CATTLE (Dairy);,SIS0241, ,14279, ,14279, , ,-11419154,4137790
197,"JONGSMA, WILLIAM",2700 COUNTY ROAD 6 HEREFORD,TX,79045,34.807777,-102.58,Dairy cattle,CATTLE (Dairy);,SIS0241, ,14279, ,14279, , ,-11419154,4137790
198,"JONGSMA, SUSAN",2700 COUNTY ROAD 6 HEREFORD,TX,79045,34.807777,-102.58,Dairy cattle,CATTLE (Dairy);,SIS0241, ,14279, ,14279, , ,-11419154,4137790
199,GOLD STAR DAIRY LLC,2700 COUNTY ROAD 6 HEREFORD,TX,79045,34.807777,-102.58,Dairy cattle,CATTLE (Dairy);,SIS0241, ,14279, ,14279, , ,-11419154,4137790
200,NORTH STAR DAIRY LLC,295 US HIGHWAY 385 HEREFORD,TX,79045,34.732777,-102.33361,Dairy cattle,CATTLE (Dairy);,SIS0241, ,31646, ,31646, , ,-11391726,4127626
201,JONGSMA FAMILY TRUST,295 US HIGHWAY 385 HEREFORD,TX,79045,34.732777,-102.33361,Dairy cattle,CATTLE (Dairy);,SIS0241, ,31646, ,31646, , ,-11391726,4127626
202,"JONGSMA, WILLIAM",295 US HIGHWAY 385 HEREFORD,TX,79045,34.732777,-102.33361,Dairy cattle,CATTLE (Dairy);,SIS0241, ,31646, ,31646, , ,-11391726,4127626
203,"JONGSMA, SUSAN",295 US HIGHWAY 385 HEREFORD,TX,79045,34.732777,-102.33361,Dairy cattle,CATTLE (Dairy);,SIS0241, ,31646, ,31646, , ,-11391726,4127626
204,PALLA INC,9951 W COUNTRY CLUB RD CANYON,TX,79015,35.004166,-101.95972,Dairy cattle,CATTLE (Dairy);,SIS0241, ,3865, ,3865, , ,-11350105,4164448
205,EVERGREEN FARMS,2765 FM 303 MULESHOE,TX,79053,34.35561,-102.499881,Dairy cattle,CATTLE (Dairy);,SIS0241, ,28820, ,28820, , ,-11410236,4076653
206,SPYKSMA PROPERTIES LP,2765 FM 303 MULESHOE,TX,79053,34.35561,-102.499881,Dairy cattle,CATTLE (Dairy);,SIS0241, ,28820, ,28820, , ,-11410236,4076653
207,EASTSIDE DAIRY LLC,5501 FM 281 DUMAS,TX,79013,36.0276,-102.0833,Dairy cattle,CATTLE (Dairy);,SIS0241, ,137780, ,137780, , ,-11363862,4304421
208,CAL-STAR DAIRY,1153 COUNTY ROAD 525 BROWNFIELD,TX,79316,33.227777,-102.22583,Dairy cattle,CATTLE (Dairy);,SIS0241, ,13885, ,13885, , ,-11379728,3925577
209,"JENSEN, DALE",5820 US HIGHWAY 385 VEGA,TX,79092,35.125,-102.39166,Dairy cattle,CATTLE (Dairy);,SIS0241, ,3679, ,3679, , ,-11398996,4180736
210,"BEUKEBOOM, FRANS",925 COUNTY ROAD 330 DUBLIN,TX,76446,31.980277,-98.329722,Dairy cattle,CATTLE (Dairy);,SIS0241, ,8232, ,8232, , ,-10946015,3760723
211,COUNTRY FAMILY CORP,4520 FM 3096 KERENS,TX,75144,32.149,-96.118666,Dairy cattle,CATTLE (Dairy);,SIS0241, ,1106, ,1106, , ,-10703671,3780710
212,BLACK HOLE RANCH CORPORATION,4520 FM 3096 KERENS,TX,75144,32.149,-96.118666,Dairy cattle,CATTLE (Dairy);,SIS0241, ,1106, ,1106, , ,-10703671,3780710
213,ROYAL FLUSH DAIRY OF TEXAS LLC,10269 COUNTY ROAD B SPEARMAN,TX,79081,36.045555,-101.24361,Dairy cattle,CATTLE (Dairy);,SIS0241, ,8672, ,8672, , ,-11269821,4306335
214,FB LARIAT DAIRY LLC,1250 COUNTY ROAD DD MULESHOE,TX,79327,34.329722,-102.82444,Dairy cattle,CATTLE (Dairy);,SIS0241, ,35522, ,35522, , ,-11446365,4073163
215,OVERSTREET DAIRY A TEXAS LIMITED LIABILITY COMPANY,3364 FM 392 CHILLICOTHE,TX,79225,34.165277,-99.512777,Dairy cattle,CATTLE (Dairy);,SIS0241, ,0, ,10698, , ,-11077713,4051017
216,"TERPSTRA, WILLEM M",721 COUNTY ROAD 165 SIDNEY,TX,76474,31.943166,-98.760666,Dairy cattle,CATTLE (Dairy);,SIS0241, ,3808, ,3808, , ,-10994036,3755460
217,"BOER, MARTIN","13209 US-385, Dalhart, TX 79022, USA",TX,79022,36.212777,-102.51277,Dairy cattle,CATTLE (Dairy);,SIS0241, ,28269, ,28269, , ,-11412502,4332717
218,BOER 2008 FAMILY TRUST,"13209 US-385, Dalhart, TX 79022, USA",TX,79022,36.212777,-102.51277,Dairy cattle,CATTLE (Dairy);,SIS0241, ,28269, ,28269, , ,-11412502,4332717
219,"BOER, EMILY","13209 US-385, Dalhart, TX 79022, USA",TX,79022,36.212777,-102.51277,Dairy cattle,CATTLE (Dairy);,SIS0241, ,28269, ,28269, , ,-11412502,4332717
220,HILLSIDE DAIRY LLC,1133 COUNTY ROAD 492 STEPHENVILLE,TX,76401,32.214166,-98.105,Dairy cattle,CATTLE (Dairy);,SIS0241, ,4218, ,4218, , ,-10921635,3791488
221,LITTLE CREEK DAIRY,3550 COUNTY ROAD 15 HEREFORD,TX,79045,34.94888,-102.427222,Dairy cattle,CATTLE (Dairy);,SIS0241, ,21462, ,21462, , ,-11402147,4156937
222,OPTIMA DAIRY TEXAS LLC,2131 COUNTY ROAD 23 FRIONA,TX,79035,34.601666,-102.64027,Dairy cattle,CATTLE (Dairy);,SIS0241, ,9986, ,9986, , ,-11425864,4109881
223,NATURAL PRAIRIE DAIRY FARMS LLC,"4120 Co Rd K, Hartley, TX 79044, USA",TX,79044,35.8909,-102.3364,Dairy cattle,CATTLE (Dairy);,SIS0241, ,26280, ,26280, , ,-11392302,4285797
224,NATURAL PRAIRIE LAND COMPANY LLC,"4120 Co Rd K, Hartley, TX 79044, USA",TX,79044,35.8909,-102.3364,Dairy cattle,CATTLE (Dairy);,SIS0241, ,26280, ,26280, , ,-11392302,4285797
225,"JENNINGS, BRENT",4234 E FM 2795 ALBA,TX,75410,32.833596,-95.677936,Dairy cattle,CATTLE (Dairy);,SIS0241, ,2625, ,2625, , ,-10650820,3873238
226,"SHERMAN, ELSA",13390 US HIGHWAY 385 DALHART,TX,79022,36.235833,-102.5125,Dairy cattle,CATTLE (Dairy);,SIS0241, ,65700, ,65700, , ,-11411640,4333121
227,"AVILA, JENNIFER",13390 US HIGHWAY 385 DALHART,TX,79022,36.235833,-102.5125,Dairy cattle,CATTLE (Dairy);,SIS0241, ,65700, ,65700, , ,-11411640,4333121
228,"AVILA, RICHARD",13390 US HIGHWAY 385 DALHART,TX,79022,36.235833,-102.5125,Dairy cattle,CATTLE (Dairy);,SIS0241, ,65700, ,65700, , ,-11411640,4333121
229,"BOEHNING, BRIAN PAUL",690 COUNTY ROAD 45 EARTH,TX,79031,34.2229,-102.5971,Dairy cattle,CATTLE (Dairy);,SIS0241, ,15394, ,15394, , ,-11421058,4058772
230,GUESS DAIRY LLC,600 COUNTY ROAD 620 DIMMITT,TX,79027,34.47225,-102.44176,Dairy cattle,CATTLE (Dairy);,SIS0241, ,16754, ,16754, , ,-11403766,4092392
231,SOUTHSIDE DAIRY LLC,2036 COUNTY ROAD 518 HART,TX,79027,34.463888,-102.2375,Dairy cattle,CATTLE (Dairy);,SIS0241, ,51377, ,51377, , ,-11381027,4091263
232,SOUTHSIDE DAIRY LLC,1970 COUNTY ROAD 622 HART,TX,79043,34.43653,-102.20035,Dairy cattle,CATTLE (Dairy);,SIS0241, ,23721, ,23721, , ,-11376892,4087570
233,GOLDEN J JERSEYS LLC,11922 STONE RD DUMAS,TX,79029,36.016266,-101.956149,Dairy cattle,CATTLE (Dairy);,SIS0241, ,35719, ,35719, , ,-11349708,4302861
234,VYN LAND AND CATTLE,11922 STONE RD DUMAS,TX,79029,36.016266,-101.956149,Dairy cattle,CATTLE (Dairy);,SIS0241, ,35719, ,35719, , ,-11349708,4302861
235,CNOSSEN DAIRY LLC,5155 COUNTY ROAD EE HEREFORD,TX,79045,35.036656,-102.33988,Dairy cattle,CATTLE (Dairy);,SIS0241, ,52268, ,52268, , ,-11392424,4168864
236,CNOSSEN DAIRY LLC,"Unnamed Road, Hereford, TX 79045, USA",TX,79045,35.001666,-102.34027,Dairy cattle,CATTLE (Dairy);,SIS0241, ,54312, ,54312, , ,-11392468,4164108
237,NORTHSIDE FARMLAND HOLDINGS LLC,10640 FM 2357 HARTLEY,TX,79044,35.844722,-102.40583,Dairy cattle,CATTLE (Dairy);,SIS0241, ,10747, ,10747, , ,-11399766,4279277
238,JERSEY GOLD DAIRY LLC,10640 FM 2357 HARTLEY,TX,79044,35.844722,-102.40583,Dairy cattle,CATTLE (Dairy);,SIS0241, ,10747, ,10747, , ,-11399766,4279277
239,DEL RIO DAIRY LLLP,1380 HIGHWAY 214 FRIONA,TX,79035,34.492777,-102.72722,Dairy cattle,CATTLE (Dairy);,SIS0241, ,54659, ,54659, , ,-11435543,4095164
240,FRIONA FARMING ENTERPRISES LLC,1380 HIGHWAY 214 FRIONA,TX,79035,34.492777,-102.72722,Dairy cattle,CATTLE (Dairy);,SIS0241, ,54659, ,54659, , ,-11437024,4094447
241,TRACK DAIRY LLC,2301 CR 1090 MULESHOE,TX,79347,34.1797,-102.6549,Dairy cattle,CATTLE (Dairy);,SIS0241, ,14819, ,14819, , ,-11427492,4052958
242,"FINNEY, DENZEL",2301 CR 1090 MULESHOE,TX,79347,34.1797,-102.6549,Dairy cattle,CATTLE (Dairy);,SIS0241, ,14819, ,14819, , ,-11427492,4052958
243,"DEBOER, NICO JAAP",19008 FARM TO MARKET 3079 CHANDLER,TX,75758,32.2635,-95.537716,Dairy cattle,CATTLE (Dairy);,SIS0241, ,2613, ,2613, , ,-10635211,3797950
244,WILLEM OSINGA,1332 COUNTY ROAD 4596 WINNSBORO,TX,75494,32.8285,-95.182933,Dairy cattle,CATTLE (Dairy);,SIS0241, ,1874, ,1874, , ,-10596384,3871822
245,W & A DAIRY,1332 COUNTY ROAD 4596 WINNSBORO,TX,75494,32.8285,-95.182933,Dairy cattle,CATTLE (Dairy);,SIS0241, ,1874, ,1874, , ,-10596384,3871822
246,"DURK, DEBOER",5600 COUNTY ROAD 309 DUBLIN,TX,76446,32.005333,-98.300566,Dairy cattle,CATTLE (Dairy);,SIS0241, ,2625, ,2625, , ,-10942770,3764011
247,"SIEPERDA, OWEN",5600 COUNTY ROAD 309 DUBLIN,TX,76446,32.005333,-98.300566,Dairy cattle,CATTLE (Dairy);,SIS0241, ,2625, ,2625, , ,-10942770,3764011
248,"DEBOER, SHAWNA",5600 COUNTY ROAD 309 DUBLIN,TX,76446,32.005333,-98.300566,Dairy cattle,CATTLE (Dairy);,SIS0241, ,2625, ,2625, , ,-10942770,3764011
249,"WOLF, LLOYD JR",140 WINTER LN WINDTHORST,TX,76389,33.519333,-98.471666,Dairy cattle,CATTLE (Dairy);,SIS0241, ,2625, ,2625, , ,-10961817,3964442
250,LEGACY DAIRY FARMS LTD,1451 COUNTY ROAD 265 HALE CENTER,TX,79041,33.927222,-101.84472,Dairy cattle,CATTLE (Dairy);,SIS0241, ,16075, ,16075, , ,-11337303,4019035
251,DESCANSO DAIRY LLC,1451 COUNTY ROAD 265 HALE CENTER,TX,79041,33.927222,-101.84472,Dairy cattle,CATTLE (Dairy);,SIS0241, ,16075, ,16075, , ,-11337303,4019035
252,"VISSER, JESS",2461 FM 1842 SPRINGLAKE,TX,79064,34.266944,-102.19888,Dairy cattle,CATTLE (Dairy);,SIS0241, ,22110, ,22110, , ,-11376728,4064703
253,JESS AND GAIL VISSER FAMILY TRUST,2461 FM 1842 SPRINGLAKE,TX,79064,34.266944,-102.19888,Dairy cattle,CATTLE (Dairy);,SIS0241, ,22110, ,22110, , ,-11376728,4064703
254,"VISSER, GAIL",2461 FM 1842 SPRINGLAKE,TX,79064,34.266944,-102.19888,Dairy cattle,CATTLE (Dairy);,SIS0241, ,22110, ,22110, , ,-11376728,4064703
255,BOVINA DAIRY LLC,944 COUNTY ROAD 11 FARWELL,TX,79009,34.436666,-102.84722,Dairy cattle,CATTLE (Dairy);,SIS0241, ,18177, ,18177, , ,-11448901,4087588
256,NORTH MULESHOE DAIRY LLC,1029 COUNTY ROAD 1028 MULESHOE,TX,79347,34.270277,-102.65388,Dairy cattle,CATTLE (Dairy);,SIS0241, ,24528, ,24528, , ,-11427379,4065152
257,"VAN DER JAGT, ADRIAAN",1228 COUNTY ROAD 2321 SULPHUR SPRINGS,TX,75482,33.057222,-95.535555,Dairy cattle,CATTLE (Dairy);,SIS0241, ,1828, ,1828, , ,-10634970,3902902
258,"JACOBS, ANTOON",906 COUNTY ROAD 1800 YANTIS,TX,75482,32.938611,-95.565,Dairy cattle,CATTLE (Dairy);,SIS0241, ,5521, ,5521, , ,-10638248,3887159
259,SWEETWATER CREEK DAIRY LLC,14550 HWY 152 MOBEETIE,TX,79061,35.509257,-100.49918,Dairy cattle,CATTLE (Dairy);,SIS0241, ,14281, ,14281, , ,-11187519,4233305
260,SOUTHWESTERN FARMS & CATTLE CO INC,2901 FM 1476 DUBLIN,TX,76468,31.96026,-98.41323,Dairy cattle,CATTLE (Dairy);,SIS0241, ,3203, ,3203, , ,-10955312,3758096
261,NEW YORK LANE CATTLE CO LLC,2901 FM 1476 DUBLIN,TX,76468,31.96026,-98.41323,Dairy cattle,CATTLE (Dairy);,SIS0241, ,3203, ,3203, , ,-10955312,3758096
262,DUTCH ROAD DAIRY LLC,236 COUNTY ROAD 163 MULESHOE,TX,79347,34.279166,-102.75777,Dairy cattle,CATTLE (Dairy);,SIS0241, ,8267, ,8267, , ,-11438944,4066350
263,ORKNEY DAIRY LLC,294 PRIVATE ROAD 1349 DUBLIN,TX,76446,32.105555,-98.396666,Dairy cattle,CATTLE (Dairy);,SIS0241, ,3752, ,3752, , ,-10953468,3777175
264,HIGH NOON DAIRY LLC,5155 FM 1057 HEREFORD,TX,79045,34.986666,-102.44166,Dairy cattle,CATTLE (Dairy);,SIS0241, ,62933, ,62933, , ,-11403754,4162070
265,EPIC DAIRIES LLC,3576 COUNTY ROAD M HARTLEY,TX,79044,35.876111,-102.44611,Dairy cattle,CATTLE (Dairy);,SIS0241, ,1542, ,1542, , ,-11404250,4283589
266,EXUM FARMS LLC,4960 FM 281 DALHART,TX,79022,36.025277,-102.200277,Dairy cattle,CATTLE (Dairy);,SIS0241, ,34478, ,34478, , ,-11376884,4304101
267,VANDER HORST ENTERPRISES LLC,14065 COUNTY ROAD 355 DUBLIN,TX,76446,32.176666,-98.441111,Dairy cattle,CATTLE (Dairy);,SIS0241, ,6990, ,6990, , ,-10958415,3786524
268,360 AG MANAGEMENT LLC,14065 COUNTY ROAD 355 DUBLIN,TX,76446,32.176666,-98.441111,Dairy cattle,CATTLE (Dairy);,SIS0241, ,6990, ,6990, , ,-10958415,3786524
269,VANDER HORST ENTERPRISES LLC,3644 COUNTY ROAD 368 DUBLIN,TX,76446,32.201944,-98.445,Dairy cattle,CATTLE (Dairy);,SIS0241, ,33557, ,33557, , ,-10958848,3789849
270,360 AG MANAGEMENT LLC,3644 COUNTY ROAD 368 DUBLIN,TX,76446,32.201944,-98.445,Dairy cattle,CATTLE (Dairy);,SIS0241, ,33557, ,33557, , ,-10958848,3789849
271,VANDER HORST ENTERPRISES LLC,9715 FM 2156 DUBLIN,TX,76446,32.1375,-98.425555,Dairy cattle,CATTLE (Dairy);,SIS0241, ,13324, ,13324, , ,-10956684,3781374
272,360 AG MANAGEMENT LLC,9715 FM 2156 DUBLIN,TX,76446,32.1375,-98.425555,Dairy cattle,CATTLE (Dairy);,SIS0241, ,13324, ,13324, , ,-10956684,3781374
273,VANDER HORST ENTERPRISES LLC,16495 N FM 219 DUBLIN,TX,76446,32.205666,-98.3715,Dairy cattle,CATTLE (Dairy);,SIS0241, ,16425, ,16425, , ,-10950666,3790339
274,360 AG MANAGEMENT LLC,16495 N FM 219 DUBLIN,TX,76446,32.205666,-98.3715,Dairy cattle,CATTLE (Dairy);,SIS0241, ,16425, ,16425, , ,-10950666,3790339
275,"JONES, STANLEY RAY",14527 N COUNTY ROAD 3700 IDALOU,TX,79329,33.76131,-101.61763,Dairy cattle,CATTLE (Dairy);,SIS0241, ,10366, ,10366, , ,-11312024,3996797
276,BLUE SKY FARMS LLC,14527 N COUNTY ROAD 3700 IDALOU,TX,79329,33.76131,-101.61763,Dairy cattle,CATTLE (Dairy);,SIS0241, ,10366, ,10366, , ,-11312024,3996797
277,"VANDERLEI, KORNELIS WILT","1220 Co Rd 182, Amherst, TX 79312, USA",TX,79312,34.087029,-102.415799,Dairy cattle,CATTLE (Dairy);,SIS0241, ,36026, ,36026, , ,-11400876,4040495
278,"VANDERLEI, PIERTSJE DEBOER","1220 Co Rd 182, Amherst, TX 79312, USA",TX,79312,34.087029,-102.415799,Dairy cattle,CATTLE (Dairy);,SIS0241, ,36026, ,36026, , ,-11400876,4040495
279,B&B LANTING DAIRY LLC,776 PRIVATE ROAD 1371 DUBLIN,TX,76446,32.022916,-98.35325,Dairy cattle,CATTLE (Dairy);,SIS0241, ,3718, ,3718, , ,-10948783,3765682
280,360 AG MANAGEMENT LLC,7206 COUNTY ROAD 344 DUBLIN,TX,76446,32.115,-98.446,Dairy cattle,CATTLE (Dairy);,SIS0241, ,2629, ,2629, , ,-10958642,3778516
281,"JONES, JENNADINE",7206 COUNTY ROAD 344 DUBLIN,TX,76446,32.115,-98.446,Dairy cattle,CATTLE (Dairy);,SIS0241, ,2629, ,2629, , ,-10958642,3778516
282,"MCCOY, STEVE DALE",7075 COUNTY ROAD 180 STEPHENVILLE,TX,76401,32.252777,-98.106388,Dairy cattle,CATTLE (Dairy);,SIS0241, ,1878, ,1878, , ,-10921154,3796538
283,EXUM FARMS LLC,"FM281, Dalhart, TX 79022, USA",TX,79013,36.023888,-102.176111,Dairy cattle,CATTLE (Dairy);,SIS0241, ,222674, ,222674, , ,-11410086,4306243
284,UNITED AG LLC,677 COUNTY ROAD 20 PLAINVIEW,TX,79032,34.283888,-101.98083,Dairy cattle,CATTLE (Dairy);,SIS0241, ,34936, ,34936, , ,-11352455,4066986
285,"HINTON, TREY","2411 County Rd 3511, Sulphur Springs",TX,75482,33.042222,-95.56,Dairy cattle,CATTLE (Dairy);,SIS0241, ,218, ,218, , ,-10635269,3923666
286,LINDEL FARMS LLC,8540 LINDEL DAIRY RD PAMPA,TX,79065,35.514833,-100.65233,Dairy cattle,CATTLE (Dairy);,SIS0241, ,57761, ,57761, ,Relocated,-11239812,4234810
287,RUNWAY DAIRY LLC,8540 LINDEL DAIRY RD PAMPA,TX,79065,35.514833,-100.65233,Dairy cattle,CATTLE (Dairy);,SIS0241, ,57761, ,57761, ,Relocated,-11239812,4234810
288,"SCHAAP, EDDIE SIDNEY","4505 Grenada Rd, Hereford, TX 79045, USA",TX,79045,34.951175,-102.469996,Dairy cattle,CATTLE (Dairy);,SIS0241, ,24090, ,24090, , ,-11407472,4155760
289,CLOWDUS DAIRY LLC,135 COUNTY ROAD 530 EVANT,TX,76525,31.485,-98.295277,Dairy cattle,CATTLE (Dairy);,SIS0241, ,11315, ,11315, , ,-10942181,3695898
290,NATURAL HARVEST DAIRY LLC,"Farwell, TX 79325, USA",TX,79325,34.404166,-102.916944,Dairy cattle,CATTLE (Dairy);,SIS0241, ,13542, ,13542, , ,-11456663,4083202
291,CBJ FARMS,2751 FM 1055 DIMMITT,TX,79031,34.352222,-102.399722,Dairy cattle,CATTLE (Dairy);,SIS0241, ,31821, ,31821, , ,-11399086,4076196
292,"SPYKSMA, JOHN CHADLEY",2751 FM 1055 DIMMITT,TX,79031,34.352222,-102.399722,Dairy cattle,CATTLE (Dairy);,SIS0241, ,31821, ,31821, , ,-11399086,4076196
293,"SPYKSMA, JOHN RICHARD",2751 FM 1055 DIMMITT,TX,79031,34.352222,-102.399722,Dairy cattle,CATTLE (Dairy);,SIS0241, ,31821, ,31821, , ,-11399086,4076196
294,JOHN C SPYKSMA REVOCABLE TRUST,2751 FM 1055 DIMMITT,TX,79031,34.352222,-102.399722,Dairy cattle,CATTLE (Dairy);,SIS0241, ,31821, ,31821, , ,-11399086,4076196
295,A & K ALAMO 2015 TRUST,10555 COUNTY ROAD 44 HARTLEY,TX,79044,35.826111,-102.31,Dairy cattle,CATTLE (Dairy);,SIS0241, ,72270, ,72270, , ,-11389098,4276722
296,"ALAMO, KARYN MARIE",10555 COUNTY ROAD 44 HARTLEY,TX,79044,35.826111,-102.31,Dairy cattle,CATTLE (Dairy);,SIS0241, ,72270, ,72270, , ,-11389098,4276722
297,"ALAMO, ANTHONY",10555 COUNTY ROAD 44 HARTLEY,TX,79044,35.826111,-102.31,Dairy cattle,CATTLE (Dairy);,SIS0241, ,72270, ,72270, , ,-11389098,4276722
298,MORNING STAR DAIRY LLC,"620 FM694, Dalhart, TX 79022, USA",TX,79022,36.0356,-102.651755,Dairy cattle,CATTLE (Dairy);,SIS0241, ,56013, ,56013, , ,-11427142,4305522
299,CONSOLIDATED DAIRY MANAGEMENT LLC,3870 CR R HARTLEY,TX,79044,35.806666,-102.38972,Dairy cattle,CATTLE (Dairy);,SIS0241, ,14899, ,14899, , ,-11398433,4274830
300,FRIENDSHIP DAIRIES,3590 COUNTY ROAD H # 12 HEREFORD,TX,79045,34.909444,-102.43861,Dairy cattle,CATTLE (Dairy);,SIS0241, ,22466, ,22466, ,Relocated,-11401649,4137647
301,FRIENDSHIP DAIRIES,3637 COUNTY ROAD 12 HEREFORD,TX,79045,34.913888,-102.415,Dairy cattle,CATTLE (Dairy);,SIS0241, ,9198, ,9198, , ,-11400787,4152186
302,"WHALEY, JORDAN DAVID",12269 FM 1702 DUBLIN,TX,76446,31.988055,-98.32,Dairy cattle,CATTLE (Dairy);,SIS0241, ,3011, ,3011, , ,-10944933,3761743
303,DAVID AND KATHY WHALEY FAMILY TRUST,12269 FM 1702 DUBLIN,TX,76446,31.988055,-98.32,Dairy cattle,CATTLE (Dairy);,SIS0241, ,3011, ,3011, , ,-10944933,3761743
304,"WHALEY, DAVID CLARK",12269 FM 1702 DUBLIN,TX,76446,31.988055,-98.32,Dairy cattle,CATTLE (Dairy);,SIS0241, ,3011, ,3011, , ,-10944933,3761743
305,"WHALEY, KATHY LYNN",12269 FM 1702 DUBLIN,TX,76446,31.988055,-98.32,Dairy cattle,CATTLE (Dairy);,SIS0241, ,3011, ,3011, , ,-10944933,3761743
306,"ZIJLSTRA, JELLE",9112 COUNTY ROAD 913 GODLEY,TX,76044,32.478055,-97.549722,Dairy cattle,CATTLE (Dairy);,SIS0241, ,2625, ,2625, , ,-10858474,3826341
307,"ODOWD, TONI DIANNE",9112 COUNTY ROAD 913 GODLEY,TX,76044,32.478055,-97.549722,Dairy cattle,CATTLE (Dairy);,SIS0241, ,2625, ,2625, , ,-10858474,3826341
308,TORNADO DAIRY LLC,12501 HIGHWAY 36 COMANCHE,TX,76442,31.886111,-98.528888,Dairy cattle,CATTLE (Dairy);,SIS0241, ,4883, ,4883, , ,-10968187,3748371
309,DUTCH HARVEST DAIRY LLC,12501 HIGHWAY 36 COMANCHE,TX,76442,31.886111,-98.528888,Dairy cattle,CATTLE (Dairy);,SIS0241, ,4883, ,4883, , ,-10968187,3748371
310,TORNADO DAIRY LLC,501 COUNTY ROAD 312 COMANCHE,TX,76442,31.90219,-98.52021,Dairy cattle,CATTLE (Dairy);,SIS0241, ,5577, ,5577, , ,-10967220,3750479
311,A&E DAIRY LLC,501 COUNTY ROAD 312 COMANCHE,TX,76442,31.90219,-98.52021,Dairy cattle,CATTLE (Dairy);,SIS0241, ,5577, ,5577, , ,-10967220,3750479
312,PETE VANDERHAM DAIRY INC,4860 US HIGHWAY 385 HEREFORD,TX,79045,34.8972,-102.3997,Dairy cattle,CATTLE (Dairy);,SIS0241, ,17811, ,17811, , ,-11399083,4149921
313,"SCHAAP, EDDIE SIDNEY",4860 US HIGHWAY 385 HEREFORD,TX,79045,34.8972,-102.3997,Dairy cattle,CATTLE (Dairy);,SIS0241, ,17811, ,17811, , ,-11399083,4149921
314,"SCHOUTEN, JOSEPH ANTHONY",1702 COUNTY ROAD 394 DUBLIN,TX,76446,32.223,-98.413166,Dairy cattle,CATTLE (Dairy);,SIS0241, ,5066, ,5066, , ,-10953435,3791936
315,"GAMBLIN, WALTER LAMOND",560 COUNTY ROAD 2325 COMO,TX,75431,33.058055,-95.504444,Dairy cattle,CATTLE (Dairy);,SIS0241, ,2438, ,2438, , ,-10631507,3903013
316,"VAN DER JAGT, ADRIAAN",560 COUNTY ROAD 2325 COMO,TX,75431,33.058055,-95.504444,Dairy cattle,CATTLE (Dairy);,SIS0241, ,2438, ,2438, , ,-10631507,3903013
317,"CANO, EMILIO CHAVEZ",215 PRIVATE ROAD 3921 MILES,TX,76861,31.641944,-100.2325,Dairy cattle,CATTLE (Dairy);,SIS0241, ,16902, ,16902, , ,-11157832,3716402
318,"Pine Island Dairy, Inc.",6700 SE Pine Island Rd Arcadia,FL,34974,27.100136,-81.767928,Dairy cattle,CATTLE (Dairy);,SIS0241, ,33059, ,33059, , ,-9102364,3135989
319,North Florida Holsteins West,3740 SW 10th Street Bell,FL,32619,29.72292,-82.853384,Dairy cattle,CATTLE (Dairy);,SIS0241, ,3619.73, ,3619.73, , ,-9223197,3467984
320,Alliance Branford LLC,2780 NW County Road 138 Branford,FL,32693,29.893521,-82.855571,Dairy cattle,CATTLE (Dairy);,SIS0241, ,6493, ,6493, , ,-9223440,3489871
321,Grassy Bell Dairy,2301 SW 32nd Place Bell,FL,32693,29.686667,-82.835833,Dairy cattle,CATTLE (Dairy);,SIS0241, ,3678, ,3678, , ,-9221243,3463338
322,"North Florida Holsteins, LLC",2740 County Road 232 Bell,FL,32619,29.72292,-82.853384,Dairy cattle,CATTLE (Dairy);,SIS0241, ,11415.29, ,11415.29, , ,-9223197,3467984
323,Piedmont Dairy,U.S. 129 Trenton,FL,32693,29.647108,-82.823159,Dairy cattle,CATTLE (Dairy);,SIS0241, ,11955, ,11955, , ,-9219832,3458270
324,Graham Farms,PO Box 1108 Moore Haven,FL,33471,26.861125,-81.218247,Dairy cattle,CATTLE (Dairy);,SIS0241, ,180, ,180, , ,-9041174,3106132
325,"Crewsville Dairy, Inc",8621 Ten Mile Grade Zolfo Springs,FL,34974,27.36238,-81.66176,Dairy cattle,CATTLE (Dairy);,SIS0241, ,31423, ,31423, , ,-9090546,3168820
326,"Kelly Nickerson, Vice President",7160 E. County Line Rd. Wauchula,FL,33873,27.646648,-81.707199,Dairy cattle,CATTLE (Dairy);,SIS0241, ,37225, ,37225, , ,-9098783,3203855
327,C.R. Melear Corporation,274 Barn 1 Rd Zolfo Springs,FL,33890,27.590698,-81.58996,Dairy cattle,CATTLE (Dairy);,SIS0241, ,60645, ,60645, , ,-9082553,3197468
328,"Nickerson Cattle Company, LLC",9060 Ten Mile Grade Zolfo Springs,FL,33890,27.4932867,-81.7981047,Dairy cattle,CATTLE (Dairy);,SIS0241, ,0, ,0, ,Relocated,-9086872,3166164
329,"V & W Farms, Inc.",8798 Hwy 64 East Zolfo Springs,FL,33826,27.588724,-81.589911,Dairy cattle,CATTLE (Dairy);,SIS0241, ,14135, ,14135, , ,-9082548,3197220
330,"Nickerson Bar III, LLC",3206 Steve Roberts Special Zolfo Springs,FL,33890,27.50049,-81.71407,Dairy cattle,CATTLE (Dairy);,SIS0241, ,24323, ,24323, , ,-9096369,3186142
331,"Bishop Brothers Dairy, Inc.",2300 Bishop Dairy Rd Sebring,FL,33870,27.47729,-81.26421,Dairy cattle,CATTLE (Dairy);,SIS0241, ,56.5, ,56.5, , ,-9046291,3183231
332,"Butler Oaks Farm, Inc.",172 Shady Oaks Ln Lorida,FL,33857,27.29513,-81.029221,Dairy cattle,CATTLE (Dairy);,SIS0241, ,5082, ,5082, , ,-9020132,3160394
333,"Goolsby, Inc. (DBA Triple G Dairy)",2175 Triple G Rd Sebring,FL,33870,27.5294,-81.35489,Dairy cattle,CATTLE (Dairy);,SIS0241, ,49971.64, ,49971.64, , ,-9056385,3189771
334,"Wabasso Road Dairy, Inc.",2903 County Road 64 E Avon Park,FL,33825,27.59918,-81.45265,Dairy cattle,CATTLE (Dairy);,SIS0241, ,51925, ,51925, , ,-9067268,3198534
335,Jeffco Dairy,622 Milky Way Greenville,FL,31643,30.615743,-83.639713,Dairy cattle,CATTLE (Dairy);,SIS0241, ,20900, ,20900, , ,-9310731,3582947
336,"Walker & Sons Farms, Inc",2349 Ashville Hwy Monticello,FL,32344,30.559589,-83.816328,Dairy cattle,CATTLE (Dairy);,SIS0241, ,560, ,560, , ,-9330391,3575685
337,"Walker & Sons Farms, Inc",CR 259 Monticello,FL,32344,30.463447,-83.927102,Dairy cattle,CATTLE (Dairy);,SIS0241, ,48, ,48, , ,-9342723,3563263
338,Lafayete Dairy LLC,559 SW Lincoln Rd Mayo,FL,34972,30.07119,-83.21955,Dairy cattle,CATTLE (Dairy);,SIS0241, ,1670, ,1670, , ,-9263958,3512705
339,Alliance Dairies,4951 NW 170th St Trenton,FL,32693,29.57667,-82.85243,Dairy cattle,CATTLE (Dairy);,SIS0241, ,28713, ,28713, , ,-9223554,3450210
340,Southpoint Dairy,6250 NW 82nd Ct Chiefland,FL,32693,29.41671,-82.90961,Dairy cattle,CATTLE (Dairy);,SIS0241, ,18655, ,18655, , ,-9229456,3428792
341,Full Circle Dairy,1479 SE Winquepin St Lee,FL,32059,30.305724,-83.304594,Dairy cattle,CATTLE (Dairy);,SIS0241, ,28470, ,28470, , ,-9273425,3542909
342,Cameron Dakin Dairy,41000 State Road 70 East Myakka City,FL,34251,27.379576,-82.227721,Dairy cattle,CATTLE (Dairy);,SIS0241, ,38000, ,38000, , ,-9153548,3170976
343,"Farren Dakin Dairy, LLC",40102 SR 70 Myakka City,FL,34251,27.318166,-82.133822,Dairy cattle,CATTLE (Dairy);,SIS0241, ,8329, ,8329, , ,-9143096,3163280
344,Jerry Dakin Dairy,30771 Betts Road Myakka City,FL,34251,27.363192,-82.229643,Dairy cattle,CATTLE (Dairy);,SIS0241, ,9716, ,9716, , ,-9153762,3168922
345,"Family Tree Enterprises Limited Partnership, LLLP",22800 NW 160th Drive Okeechobee,FL,34972,27.403986,-81.059611,Dairy cattle,CATTLE (Dairy);,SIS0241, ,25982, ,25982, , ,-9023515,3174036
346,"Burnham Farms, Inc.",5431 NE 304th St Okeechobee,FL,34972,27.51533,-80.77001,Dairy cattle,CATTLE (Dairy);,SIS0241, ,0, ,0, , ,-8991277,3188005
347,"C & M Rucks Dairy, Inc.",22400 NW 144th Ave Okeechobee,FL,34974,27.44985,-80.96611,Dairy cattle,CATTLE (Dairy);,SIS0241, ,36500, ,36500, , ,-9013106,3179789
348,"Davie Dairy, Inc",3105 NE 128th Ave Okeechobee,FL,34974,27.267591,-80.697581,Dairy cattle,CATTLE (Dairy);,SIS0241, ,0, ,0, , ,-8983214,3156944
349,"H W Rucks And Son Dairy, Inc.",17510 NW 32nd Terrace Okeechobee,FL,34973,27.40532,-80.85208,Dairy cattle,CATTLE (Dairy);,SIS0241, ,22889, ,22889, , ,-9000413,3174204
350,"H W Rucks And Son Dairy, Inc.",15780 NE 1st Way Okeechobee,FL,34973,27.345498,-80.826621,Dairy cattle,CATTLE (Dairy);,SIS0241, ,28323, ,28323, , ,-8997579,3166705
351,"J.M. Larson, Inc",4517 NE 224th St Okeechobee,FL,34973,27.449219,-80.774557,Dairy cattle,CATTLE (Dairy);,SIS0241, ,9463, ,9463, , ,-8991783,3179709
352,"J.M. Larson, Inc",22900 NE 48th Ave Okeechobee,FL,34973,27.459996,-80.770933,Dairy cattle,CATTLE (Dairy);,SIS0241, ,6313, ,6313, , ,-8991379,3181061
353,Larson Dairy Inc,7650 NE 37th Street Okeechobee,FL,34973,27.279767,-80.753239,Dairy cattle,CATTLE (Dairy);,SIS0241, ,12216, ,12216, , ,-8989410,3158469
354,Larson Dairy Inc,3000 NE 48th Ave Okeechobee,FL,34973,27.271392,-80.772547,Dairy cattle,CATTLE (Dairy);,SIS0241, ,10870, ,10870, , ,-8991559,3157420
355,"McArthur Farms, Inc.",18116 Hwy 441 North Okeechobee,FL,34972,27.441606,-80.810968,Dairy cattle,CATTLE (Dairy);,SIS0241, ,121760, ,121760, , ,-8995929,3177829
356,"McArthur Farms, Inc.",19451 US Hwy 441 Okeechobee,FL,34972,27.441635,-80.81099,Dairy cattle,CATTLE (Dairy);,SIS0241, ,9141, ,9141, , ,-8995929,3177829
357,"Milking R, Inc",6300 Highway 98 North Okeechobee,FL,34972,27.299086,-80.886211,Dairy cattle,CATTLE (Dairy);,SIS0241, ,20045, ,20045, , ,-9004212,3160889
358,PW Bishop,12305 US Highway 98 N Okeechobee,FL,34973,27.356569,-80.966742,Dairy cattle,CATTLE (Dairy);,SIS0241, ,11800, ,11800, , ,-9013177,3168092
359,"Family Tree Enterprises Limited Partnership, LLLP",16010 State Road 70 E Okeechobee,FL,34972,27.236246,-80.992582,Dairy cattle,CATTLE (Dairy);,SIS0241, ,25480, ,25480, , ,-9017364,3152915
360,Shenandoah Dairy,16540  68th Place Live Oak,FL,32060,30.324326,-83.094205,Dairy cattle,CATTLE (Dairy);,SIS0241, ,70251, ,70251, , ,-9250005,3545308
361,Lewis Family Dairy,"173 LEWIS DAIRY ROAD, ASHFORD",AL,36312,31.1742258,-85.3217068,Dairy cattle,CATTLE (Dairy);,SIS0241, ,0,281209,281209,179 lb per day-animal, ,-9497969,3655397
363,Cedarcrest Farms,"5138 COUNTY ROAD 51, FAUNSDALE",AL,36738,32.4314777,-87.6620396,Dairy cattle,CATTLE (Dairy);,SIS0241, ,0, ,0,179 lb per day-animal, ,-9758494,3820084
364,"Burden-Childers Farms, Inc","4610 PLEASANT VALLEY ROAD, UNION GROVE",AL,35175,34.398781,-86.6112179,Dairy cattle,CATTLE (Dairy);,SIS0241, ,0, ,0,179 lb per day-animal, ,-9641517,4082476
365,Hidden Valley Dairy Farm,"149 HIDDEN VALLEY ROAD, DANVILLE",AL,35619,32.5023506,-86.4166908,Dairy cattle,CATTLE (Dairy);,SIS0241, ,0, ,0,179 lb per day-animal, ,-9619863,3829435
366,Tioga Way,"374 COUNTY ROAD 5514, TROY",AL,36081,31.7937708,-85.8522859,Dairy cattle,CATTLE (Dairy);,SIS0241, ,0, ,0,179 lb per day-animal, ,-9557033,3736271
367,Hidden Valley Dairy Farm,"149 HIDDEN VALLEY ROAD, DANVILLE",AL,35619,32.5023506,-86.4166908,Dairy cattle,CATTLE (Dairy);,SIS0241, ,0, ,0,179 lb per day-animal, ,-9619863,3829435
368,"Burden-Childers Farms, Inc","4610 PLEASANT VALLEY ROAD, UNION GROVE",AL,35175,34.398781,-86.6112179,Dairy cattle,CATTLE (Dairy);,SIS0241, ,0, ,0,179 lb per day-animal, ,-9641517,4082476
369,Covington Dairy Farm Inc,"3008 S Nc119, Mebane",NC,27302,36.0442,-79.3261,Dairy cattle,CATTLE (Dairy);,SIS0241, ,0,53700,53700,179 lb per day-animal, ,-8830541,4306706
370,Triple W Farms,"3545 E Greensboro-Chapel Hill Hwy, Snow Camp",NC,27349,35.9042,-79.3,Dairy cattle,CATTLE (Dairy Heifer);,SIS0241, ,0,10800,10800,54 lb per day-animal, ,-8827636,4287448
371,Triple W Farms,"3545 E Greensboro-Chapel Hill Hwy, Snow Camp",NC,27349,35.9042,-79.3,Dairy cattle,CATTLE (Dairy);,SIS0241, ,0,71600,71600,179 lb per day-animal, ,-8827636,4287448
372,Lindley Dairy Inc. Farm,"3159 E Greensboro Chapel Hill Rd, Snow Camp",NC,27349,35.8997,-79.3306,Dairy cattle,CATTLE (Dairy);,SIS0241, ,0,40275,40275,179 lb per day-animal, ,-8831042,4286830
373,M. M. Newlin and Sons Dairy Farm,"5249 Thom Rd, Mebane",NC,27302,35.9731,-79.2825,Dairy cattle,CATTLE (Dairy);,SIS0241, ,0,21480,21480,179 lb per day-animal, ,-8825688,4296922
374,A.D. and Carlton Williard,"8152 Lindley Mill Rd, Graham",NC,27253,35.8803,-79.3456,Dairy cattle,CATTLE (Dairy);,SIS0241, ,0,26850,26850,179 lb per day-animal, ,-8832712,4284164
375,Fogleman Dairy,"9144 Sylvan Rd, Liberty",NC,27298,35.8483,-79.4597,Dairy cattle,CATTLE (Dairy);,SIS0241, ,0,59070,59070,179 lb per day-animal, ,-8845414,4279769
376,"Herman Dairy Farm, Inc.","Three Forks Church Rd, Taylorsville",NC,28681,35.933134,-81.209042,Dairy cattle,CATTLE (Dairy);,SIS0241, ,0,107400,107400,179 lb per day-animal, ,-9040150,4291426
377,Payne Dairy,"4566 Paul Payne Store Rd, Taylorsville",NC,28681,35.873786,-81.141283,Dairy cattle,CATTLE (Dairy);,SIS0241, ,0,89500,89500,179 lb per day-animal, ,-9032607,4283269
378,Alan Smith Dairy Farm,"1210 Smith Farm Rd, Stony Point",NC,28678,35.847885,-81.054686,Dairy cattle,CATTLE (Dairy);,SIS0241, ,0,71600,71600,179 lb per day-animal, ,-9022967,4279712
379,Superior Jersey Farm,"1351 Payne Dairy Rd, Taylorsville",NC,28681,35.85,-81.1353,Dairy cattle,CATTLE (Dairy);,SIS0241, ,0,98450,98450,179 lb per day-animal, ,-9031941,4280002
380,Cabe Farms,"156 Linker Ln, Stony Point",NC,28678,35.885466,-81.035494,Dairy cattle,CATTLE (Dairy);,SIS0241, ,0,71600,71600,179 lb per day-animal, ,-9020830,4284874
381,Reese Dairy Farm,"1975 Church Rd, Taylorsville",NC,28681,35.89547,-81.231917,Dairy cattle,CATTLE (Dairy);,SIS0241, ,0,44750,44750,179 lb per day-animal, ,-9042696,4286249
382,Chapman Farms,"280 Chapman Farm Ln, Taylorsville",NC,28681,35.944308,-81.211292,Dairy cattle,CATTLE (Dairy);,SIS0241, ,0,44750,44750,179 lb per day-animal, ,-9040400,4292962
383,Glade Creek Dairy Farm,"6774 Glade Valley Rd, Ennice",NC,28623,36.5036,-80.9711,Dairy cattle,CATTLE (Dairy);,SIS0241, ,0,71600,71600,179 lb per day-animal, ,-9013662,4370140
384,Gambill Farms,"609 Shiloh Church Rd, Sparta",NC,28675,36.525,-81.175,Dairy cattle,CATTLE (Dairy);,SIS0241, ,0,89500,89500,179 lb per day-animal, ,-9036360,4373104
385,Billy Smith Farms Inc,"371 Early Rd, Ennice",NC,28623,36.5475,-81.0067,Dairy cattle,CATTLE (Dairy);,SIS0241, ,0,35800,35800,179 lb per day-animal, ,-9017625,4376221
386,Joines Brothers Dairy,"4088 Hwy 221 S, Sparta",NC,28675,36.5086,-81.2258,Dairy cattle,CATTLE (Dairy);,SIS0241, ,0,49225,49225,179 lb per day-animal, ,-9042015,4370833
387,Bobby & Alvin Evans Dairy Farm,"3423 Pleasant Home Rd, Sparta",NC,28675,36.5628,-81.0481,Dairy cattle,CATTLE (Dairy);,SIS0241, ,0,26850,26850,179 lb per day-animal, ,-9022234,4378342
388,Joines Dairy Farm,"2116 Spicer Mt Rd, Sparta",NC,28675,36.5017,-81.1756,Dairy cattle,CATTLE (Dairy);,SIS0241, ,0,23270,23270,179 lb per day-animal, ,-9036427,4369877
389,"Intense Holsteins, LLC","998 NC Hwy 93, Whitehead",NC,28675,36.5383,-81.1883,Dairy cattle,CATTLE (Dairy);,SIS0241, ,0,46898,46898,179 lb per day-animal, ,-9037841,4374947
390,Brent Stegall Dairy,"1164 Stegall Rd, Peachland",NC,28133,35.021592,-80.29248,Dairy cattle,CATTLE (Dairy Heifer);,SIS0241, ,0,16200,16200,54 lb per day-animal, ,-8938118,4166817
391,White Rock Farms Dairy,"1474 Jo Pennie Rd, Peachland",NC,28133,34.8156,-80.2464,Dairy cattle,CATTLE (Dairy);,SIS0241, ,0,125300,125300,179 lb per day-animal, ,-8932989,4138851
392,T&C Dairy,"440 Lower Brush Creek Rd, Fletcher",NC,28732,35.4764,-82.4347,Dairy cattle,CATTLE (Dairy);,SIS0241, ,0,53700,53700,179 lb per day-animal, ,-9176589,4228813
393,Aubrey N. Wells Farm,"290 Willow Creek Rd, Leicester",NC,28748,35.6472,-82.8222,Dairy cattle,CATTLE (Dairy);,SIS0241, ,0,31325,31325,179 lb per day-animal, ,-9219726,4252186
394,Lyndel Farm,"90 Bonham Rd, Arden",NC,28704,35.4558,-82.5947,Dairy cattle,CATTLE (Dairy);,SIS0241, ,0,35800,35800,179 lb per day-animal, ,-9194400,4225997
395,"Mountain Woodlands, LLC Dairy","29 Wilson Rd, Fairview",NC,28730,35.5119,-82.3781,Dairy cattle,CATTLE (Dairy);,SIS0241, ,0,46540,46540,179 lb per day-animal, ,-9170289,4233667
396,George L. Pless & Sons Dairy Farm,"5901 Pless Rd, Rockwell",NC,28138,35.5047,-80.4986,Dairy cattle,CATTLE (Dairy);,SIS0241, ,0,39380,39380,179 lb per day-animal, ,-8961064,4232682
397,Stepstone Holsteins,"1791 Country Home Rd, Blanch",NC,27212,36.4328,-79.3239,Dairy cattle,CATTLE (Dairy);,SIS0241, ,0,35800,35800,179 lb per day-animal, ,-8830296,4360340
398,"John Shumaker Dairy Farm, Inc.","1246 Country Home Rd, Blanch",NC,27212,36.4244,-79.3283,Dairy cattle,CATTLE (Dairy);,SIS0241, ,0,35800,35800,179 lb per day-animal, ,-8830786,4359177
399,"S & L Riverside Dairy, L.L.C.","8317 Shull Dairy Rd, Vale",NC,28168,35.5833,-81.4733,Dairy cattle,CATTLE (Dairy);,SIS0241, ,0,42065,42065,179 lb per day-animal, ,-9069567,4243435
400,Crawford Dairy,"4085 Crawford Dairy Rd, Chapel Hill",NC,27516,35.8719,-79.2378,Dairy cattle,CATTLE (Dairy);,SIS0241, ,0,31683,31683,179 lb per day-animal, ,-8820712,4283010
401,Lindale Farm,"1156 Moon-Lindley Rd, Snow Camp",NC,27349,35.8133,-79.38,Dairy cattle,CATTLE (Dairy dry cow);,SIS0241, ,0,23375,23375,85 lb per day-animal, ,-8836541,4274963
402,Manco Dairy Farm,"1486 Manco Dairy Rd, Pittsboro",NC,27312,35.7444,-79.245,Dairy cattle,CATTLE (Dairy);,SIS0241, ,0,26850,26850,179 lb per day-animal, ,-8821513,4265509
403,Phillips Farms,"8166 NC Hwy 42, Bear Creek",NC,27207,35.5267,-79.4733,Dairy cattle,CATTLE (Dairy);,SIS0241, ,0,35800,35800,179 lb per day-animal, ,-8846928,4235691
404,South Fork Dairy,"1000 R E Wright Rd, Snow Camp",NC,27349,35.8378,-79.3589,Dairy cattle,CATTLE (Dairy);,SIS0241, ,0,44750,44750,179 lb per day-animal, ,-8834193,4278327
405,Notla Farms,"115 Dairy Farm Rd, Murphy",NC,28906,35.0153,-84.1881,Dairy cattle,CATTLE (Dairy);,SIS0241, ,0,35800,35800,179 lb per day-animal, ,-9371777,4165961
406,G.W. Bell & Sons Dairy,"765 Bell Rd, Kings Mountain",NC,28086,35.2925,-81.3997,Dairy cattle,CATTLE (Dairy calf);,SIS0241, ,0,1350,1350,27 lb per day-animal, ,-9061374,4203703
407,G.W. Bell & Sons Dairy,"765 Bell Rd, Kings Mountain",NC,28086,35.2925,-81.3997,Dairy cattle,CATTLE (Dairy Heifer);,SIS0241, ,0,15660,15660,54 lb per day-animal, ,-9061374,4203703
408,G.W. Bell & Sons Dairy,"765 Bell Rd, Kings Mountain",NC,28086,35.2925,-81.3997,Dairy cattle,CATTLE (Dairy);,SIS0241, ,0,53700,53700,179 lb per day-animal, ,-9061374,4203703
409,Clover Ridge Dairy,"126 Guy Warlick Rd, Lawndale",NC,28090,35.4767,-81.6014,Dairy cattle,CATTLE (Dairy);,SIS0241, ,0,40275,40275,179 lb per day-animal, ,-9083827,4228854
410,Lovelea Farm,"6617 Linwood-South Mont Rd, Lexington",NC,27292,35.7325,-80.3133,Dairy cattle,CATTLE (Dairy calf);,SIS0241, ,0,1350,1350,27 lb per day-animal, ,-8940436,4263877
411,Lovelea Farm,"6617 Linwood-South Mont Rd, Lexington",NC,27292,35.7325,-80.3133,Dairy cattle,CATTLE (Dairy Heifer);,SIS0241, ,0,10800,10800,54 lb per day-animal, ,-8940436,4263877
412,Lovelea Farm,"6617 Linwood-South Mont Rd, Lexington",NC,27292,35.7325,-80.3133,Dairy cattle,CATTLE (Dairy);,SIS0241, ,0,214800,214800,179 lb per day-animal, ,-8940436,4263877
413,Long Meadow Farm,"241 Will Snider Rd, Linwood",NC,27299,35.7583,-80.43,Dairy cattle,CATTLE (Dairy);,SIS0241, ,0,31325,31325,179 lb per day-animal, ,-8953427,4267416
414,Crousedale Farm,"1231 Cedar Springs Rd, Lexington",NC,27292,35.6806,-80.0819,Dairy cattle,CATTLE (Dairy calf);,SIS0241, ,0,675,675,27 lb per day-animal, ,-8914677,4256762
415,Crousedale Farm,"1231 Cedar Springs Rd, Lexington",NC,27292,35.6806,-80.0819,Dairy cattle,CATTLE (Dairy);,SIS0241, ,0,34010,34010,179 lb per day-animal, ,-8914677,4256762
416,Fisherward Dairy Joint Venture,"9222 E Old Hwy 64, Lexington",NC,27292,35.7353,-80.1339,Dairy cattle,CATTLE (Dairy calf);,SIS0241, ,0,540,540,27 lb per day-animal, ,-8920465,4264261
417,Fisherward Dairy Joint Venture,"9222 E Old Hwy 64, Lexington",NC,27292,35.7353,-80.1339,Dairy cattle,CATTLE (Dairy);,SIS0241, ,0,25060,25060,179 lb per day-animal, ,-8920465,4264261
418,Red Acres Farm,"2250 J Order Home Rd, Lexington",NC,27292,35.7583,-80.2892,Dairy cattle,CATTLE (Dairy calf);,SIS0241, ,0,1350,1350,27 lb per day-animal, ,-8937753,4267416
419,Red Acres Farm,"2250 J Order Home Rd, Lexington",NC,27292,35.7583,-80.2892,Dairy cattle,CATTLE (Dairy Heifer);,SIS0241, ,0,14580,14580,54 lb per day-animal, ,-8937753,4267416
420,Red Acres Farm,"2250 J Order Home Rd, Lexington",NC,27292,35.7583,-80.2892,Dairy cattle,CATTLE (Dairy);,SIS0241, ,0,116350,116350,179 lb per day-animal, ,-8937753,4267416
421,Deerview Jersey Farm,"300 Lutz Ln, Mocksville",NC,27028,35.9958,-80.5667,Dairy cattle,CATTLE (Dairy);,SIS0241, ,0,44750,44750,179 lb per day-animal, ,-8968644,4300044
422,Blackwelder Farms,"323 Wagner Rd, Mocksville",NC,27028,35.9458,-80.6314,Dairy cattle,CATTLE (Dairy);,SIS0241, ,0,22375,22375,179 lb per day-animal, ,-8975847,4293167
423,"Eaker Dairy, Inc.","610 Roy Eaker Rd, Cherryville",NC,28021,35.4042,-81.3542,Dairy cattle,CATTLE (Dairy calf);,SIS0241, ,0,1350,1350,27 lb per day-animal, ,-9056308,4218948
424,"Eaker Dairy, Inc.","610 Roy Eaker Rd, Cherryville",NC,28021,35.4042,-81.3542,Dairy cattle,CATTLE (Dairy dry cow);,SIS0241, ,0,8500,8500,85 lb per day-animal, ,-9056308,4218948
425,"Eaker Dairy, Inc.","610 Roy Eaker Rd, Cherryville",NC,28021,35.4042,-81.3542,Dairy cattle,CATTLE (Dairy);,SIS0241, ,0,71600,71600,179 lb per day-animal, ,-9056308,4218948
426,Proctor Dairy,"112 Hub Carpenter Rd, Bessemer City",NC,28016,35.3333,-81.2417,Dairy cattle,CATTLE (Dairy calf);,SIS0241, ,0,378,378,27 lb per day-animal, ,-9043785,4209269
427,Proctor Dairy,"112 Hub Carpenter Rd, Bessemer City",NC,28016,35.3333,-81.2417,Dairy cattle,CATTLE (Dairy Heifer);,SIS0241, ,0,2106,2106,54 lb per day-animal, ,-9043785,4209269
428,Proctor Dairy,"112 Hub Carpenter Rd, Bessemer City",NC,28016,35.3333,-81.2417,Dairy cattle,CATTLE (Dairy dry cow);,SIS0241, ,0,2805,2805,85 lb per day-animal, ,-9043785,4209269
429,Proctor Dairy,"112 Hub Carpenter Rd, Bessemer City",NC,28016,35.3333,-81.2417,Dairy cattle,CATTLE (Dairy);,SIS0241, ,0,40275,40275,179 lb per day-animal, ,-9043785,4209269
430,William H. Day Jr. Dairy,"2501 Bodie Currin Rd, Oxford",NC,27565,36.3525,-78.6603,Dairy cattle,CATTLE (Dairy);,SIS0241, ,0,35800,35800,179 lb per day-animal, ,-8756425,4349235
431,Currin Bros. Dairy,"2603 Enon Rd, Oxford",NC,27565,36.3158,-78.6472,Dairy cattle,CATTLE (Dairy);,SIS0241, ,0,53700,53700,179 lb per day-animal, ,-8754967,4344163
432,Simply Natural Jersey Farm,"Carson Edward Rd, Hookerton",NC,28538,35.4564,-77.5213,Dairy cattle,CATTLE (Dairy);,SIS0241, ,0,22375,22375,179 lb per day-animal, ,-8629632,4226079
433,Oakmere Farms,"8151 Spearman Rd, Browns Summit",NC,27214,36.2417,-79.7486,Dairy cattle,CATTLE (Dairy);,SIS0241, ,0,42960,42960,179 lb per day-animal, ,-8877574,4333931
434,Whitecedar Dairy,"8255 White Cedar Rd, Browns Summit",NC,27214,36.24,-79.6383,Dairy cattle,CATTLE (Dairy);,SIS0241, ,0,107400,107400,179 lb per day-animal, ,-8865295,4333696
435,Reedy Fork Farm,"7092 Sockwell Rd, Elon College",NC,27244,36.1731,-79.5578,Dairy cattle,CATTLE (Dairy);,SIS0241, ,0,35800,35800,179 lb per day-animal, ,-8856334,4324467
436,Riverside Dairy Farm,"6845 NC 61 N, Gibsonville",NC,27249,36.1708,-79.5736,Dairy cattle,CATTLE (Dairy dry cow);,SIS0241, ,0,1700,1700,85 lb per day-animal, ,-8858093,4324150
437,Riverside Dairy Farm,"6845 NC 61 N, Gibsonville",NC,27249,36.1708,-79.5736,Dairy cattle,CATTLE (Dairy);,SIS0241, ,0,17900,17900,179 lb per day-animal, ,-8858093,4324150
438,Gerringer Dairy,"3737 High Rock Rd, Gibsonville",NC,27249,36.1331,-79.5467,Dairy cattle,CATTLE (Dairy);,SIS0241, ,0,35800,35800,179 lb per day-animal, ,-8855098,4318952
439,H. Dean Ross Farm,"295 Holstein Farm Rd, Waynesville",NC,28785,35.5847,-83.0217,Dairy cattle,CATTLE (Dairy);,SIS0241, ,0,53700,53700,179 lb per day-animal, ,-9241934,4243627
440,Triple R Dairy Farm,"298 Farmland Rd, Waynesville",NC,28785,35.5917,-83.025,Dairy cattle,CATTLE (Dairy);,SIS0241, ,0,62650,62650,179 lb per day-animal, ,-9242301,4244585
441,Johnny Ferguson Farm,"191 Ferguson Cove Ln, Clyde",NC,28721,35.5981,-82.8347,Dairy cattle,CATTLE (Dairy);,SIS0241, ,0,29535,29535,179 lb per day-animal, ,-9221117,4245461
442,Ross and Son Dairy Farm,"681 Farmland Rd, Waynesville",NC,28785,35.5881,-83.025,Dairy cattle,CATTLE (Dairy);,SIS0241, ,0,89500,89500,179 lb per day-animal, ,-9242301,4244093
443,Parkins Brothers Dairy,"1312 DOC Graham Rd, Clyde",NC,28721,35.6694,-82.975,Dairy cattle,CATTLE (Dairy);,SIS0241, ,0,26850,26850,179 lb per day-animal, ,-9236735,4255227
444,Smart's Dairy,"156 Riverside Dr, Clyde",NC,28721,35.6047,-82.9417,Dairy cattle,CATTLE (Dairy);,SIS0241, ,0,26850,26850,179 lb per day-animal, ,-9233028,4246365
445,Medford Dairy,"254 Joe Medford Rd, Waynesville",NC,28785,35.595,-82.975,Dairy cattle,CATTLE (Dairy);,SIS0241, ,0,23270,23270,179 lb per day-animal, ,-9236735,4245037
446,"Souther Farms, LLC","2825 W Memorial Hwy, Union Grove",NC,28689,36.0328,-80.925,Dairy cattle,CATTLE (Dairy Heifer);,SIS0241, ,0,64800,64800,54 lb per day-animal, ,-9008530,4305137
447,"Souther Farms, LLC","2825 W Memorial Hwy, Union Grove",NC,28689,36.0328,-80.925,Dairy cattle,CATTLE (Dairy dry cow);,SIS0241, ,0,25500,25500,85 lb per day-animal, ,-9008530,4305137
448,"Souther Farms, LLC","2825 W Memorial Hwy, Union Grove",NC,28689,36.0328,-80.925,Dairy cattle,CATTLE (Dairy);,SIS0241, ,0,268500,268500,179 lb per day-animal, ,-9008530,4305137
449,Rocky Creek Dairy,"211 Shaw Rd, Harmony, NC 28634, USA",NC,0,35.9203,-80.7542,Dairy cattle,CATTLE (Dairy Heifer);,SIS0241, ,0,59400,59400,54 lb per day-animal, ,-8989517,4289661
450,Rocky Creek Dairy,"211 Shaw Rd, Harmony, NC 28634, USA",NC,0,35.9203,-80.7542,Dairy cattle,CATTLE (Dairy dry cow);,SIS0241, ,0,12750,12750,85 lb per day-animal, ,-8989517,4289661
451,Rocky Creek Dairy,"211 Shaw Rd, Harmony, NC 28634, USA",NC,0,35.9203,-80.7542,Dairy cattle,CATTLE (Dairy);,SIS0241, ,0,231805,231805,179 lb per day-animal, ,-8989517,4289661
452,Fox Farm,"122 Buttke Dr, Statesville",NC,28625,35.8389,-80.8292,Dairy cattle,CATTLE (Dairy);,SIS0241, ,0,161100,161100,179 lb per day-animal, ,-8997866,4278478
453,"Myers Farms, Inc.","145 Friendly Farm Rd, Union Grove",NC,28689,36.0542,-80.8375,Dairy cattle,CATTLE (Dairy calf);,SIS0241, ,0,14850,14850,27 lb per day-animal, ,-8998790,4308083
454,"Myers Farms, Inc.","145 Friendly Farm Rd, Union Grove",NC,28689,36.0542,-80.8375,Dairy cattle,CATTLE (Dairy Heifer);,SIS0241, ,0,75600,75600,54 lb per day-animal, ,-8998790,4308083
455,"Myers Farms, Inc.","145 Friendly Farm Rd, Union Grove",NC,28689,36.0542,-80.8375,Dairy cattle,CATTLE (Dairy dry cow);,SIS0241, ,0,29750,29750,85 lb per day-animal, ,-8998790,4308083
456,"Myers Farms, Inc.","145 Friendly Farm Rd, Union Grove",NC,28689,36.0542,-80.8375,Dairy cattle,CATTLE (Dairy);,SIS0241, ,0,322200,322200,179 lb per day-animal, ,-8998790,4308083
457,Rome Carl Ladd & Sons Dairy,"400 Fox Hunter Rd, Harmony",NC,28634,35.950057,-80.714697,Dairy cattle,CATTLE (Dairy calf);,SIS0241, ,0,1350,1350,27 lb per day-animal, ,-8985119,4293752
458,Rome Carl Ladd & Sons Dairy,"400 Fox Hunter Rd, Harmony",NC,28634,35.950057,-80.714697,Dairy cattle,CATTLE (Dairy Heifer);,SIS0241, ,0,10800,10800,54 lb per day-animal, ,-8985119,4293752
459,Rome Carl Ladd & Sons Dairy,"400 Fox Hunter Rd, Harmony",NC,28634,35.950057,-80.714697,Dairy cattle,CATTLE (Dairy dry cow);,SIS0241, ,0,4250,4250,85 lb per day-animal, ,-8985119,4293752
460,Rome Carl Ladd & Sons Dairy,"400 Fox Hunter Rd, Harmony",NC,28634,35.950057,-80.714697,Dairy cattle,CATTLE (Dairy);,SIS0241, ,0,53700,53700,179 lb per day-animal, ,-8985119,4293752
461,Fred Sutton Farm,"433 Old Miller Rd, Statesville",NC,28625,35.8133,-81.0033,Dairy cattle,CATTLE (Dairy);,SIS0241, ,0,80550,80550,179 lb per day-animal, ,-9017246,4274963
462,"T.C. Williams Farm, Inc.","139 Burke Farm Loop, Union Grove",NC,28689,36.0244,-81,Dairy cattle,CATTLE (Dairy calf);,SIS0241, ,0,2295,2295,27 lb per day-animal, ,-9016879,4303980
463,"T.C. Williams Farm, Inc.","139 Burke Farm Loop, Union Grove",NC,28689,36.0244,-81,Dairy cattle,CATTLE (Dairy Heifer);,SIS0241, ,0,4320,4320,54 lb per day-animal, ,-9016879,4303980
464,"T.C. Williams Farm, Inc.","139 Burke Farm Loop, Union Grove",NC,28689,36.0244,-81,Dairy cattle,CATTLE (Dairy dry cow);,SIS0241, ,0,2975,2975,85 lb per day-animal, ,-9016879,4303980
465,"T.C. Williams Farm, Inc.","139 Burke Farm Loop, Union Grove",NC,28689,36.0244,-81,Dairy cattle,CATTLE (Dairy);,SIS0241, ,0,35800,35800,179 lb per day-animal, ,-9016879,4303980
466,Talley Ho Farm,"338 Gethsemane Rd, Statesville, NC 28625, USA",NC,0,35.9486,-80.8833,Dairy cattle,CATTLE (Dairy);,SIS0241, ,0,68915,68915,179 lb per day-animal, ,-9003888,4293552
467,Buttke Dairy Enterprises,"1315 E Memorial Hwy, Harmony",NC,28634,35.9097,-80.7125,Dairy cattle,CATTLE (Dairy calf);,SIS0241, ,0,2160,2160,27 lb per day-animal, ,-8984875,4288204
468,Buttke Dairy Enterprises,"1315 E Memorial Hwy, Harmony",NC,28634,35.9097,-80.7125,Dairy cattle,CATTLE (Dairy dry cow);,SIS0241, ,0,8500,8500,85 lb per day-animal, ,-8984875,4288204
469,Buttke Dairy Enterprises,"1315 E Memorial Hwy, Harmony",NC,28634,35.9097,-80.7125,Dairy cattle,CATTLE (Dairy);,SIS0241, ,0,89500,89500,179 lb per day-animal, ,-8984875,4288204
470,Ha Ho Farms,"121 Patrick Rd, Harmony, NC 28634, USA",NC,0,36.0333,-80.7167,Dairy cattle,CATTLE (Dairy Heifer);,SIS0241, ,0,2160,2160,54 lb per day-animal, ,-8985342,4305205
471,Ha Ho Farms,"121 Patrick Rd, Harmony, NC 28634, USA",NC,0,36.0333,-80.7167,Dairy cattle,CATTLE (Dairy);,SIS0241, ,0,35800,35800,179 lb per day-animal, ,-8985342,4305205
472,M & M Dairy LLP,"2015 Old Mocksville Rd, Statesville",NC,28625,35.8917,-80.7667,Dairy cattle,CATTLE (Dairy calf);,SIS0241, ,0,9450,9450,27 lb per day-animal, ,-8990908,4285731
473,M & M Dairy LLP,"2015 Old Mocksville Rd, Statesville",NC,28625,35.8917,-80.7667,Dairy cattle,CATTLE (Dairy Heifer);,SIS0241, ,0,89100,89100,54 lb per day-animal, ,-8990908,4285731
474,M & M Dairy LLP,"2015 Old Mocksville Rd, Statesville",NC,28625,35.8917,-80.7667,Dairy cattle,CATTLE (Dairy dry cow);,SIS0241, ,0,34000,34000,85 lb per day-animal, ,-8990908,4285731
475,M & M Dairy LLP,"2015 Old Mocksville Rd, Statesville",NC,28625,35.8917,-80.7667,Dairy cattle,CATTLE (Dairy);,SIS0241, ,0,349050,349050,179 lb per day-animal, ,-8990908,4285731
476,"Grayhouse Farms, Inc","182 Grayhouse Rd, Stony Point",NC,28678,35.787689,-81.06013,Dairy cattle,CATTLE (Dairy calf);,SIS0241, ,0,3240,3240,27 lb per day-animal, ,-9023573,4271448
477,"Grayhouse Farms, Inc","182 Grayhouse Rd, Stony Point",NC,28678,35.787689,-81.06013,Dairy cattle,CATTLE (Dairy Heifer);,SIS0241, ,0,10800,10800,54 lb per day-animal, ,-9023573,4271448
478,"Grayhouse Farms, Inc","182 Grayhouse Rd, Stony Point",NC,28678,35.787689,-81.06013,Dairy cattle,CATTLE (Dairy dry cow);,SIS0241, ,0,21250,21250,85 lb per day-animal, ,-9023573,4271448
479,"Grayhouse Farms, Inc","182 Grayhouse Rd, Stony Point",NC,28678,35.787689,-81.06013,Dairy cattle,CATTLE (Dairy);,SIS0241, ,0,255970,255970,179 lb per day-animal, ,-9023573,4271448
480,Alvin Shaver Heifer Farm,"334 Lundy Rd, Statesville",NC,28625,35.9,-80.8636,Dairy cattle,CATTLE (Dairy Heifer);,SIS0241, ,0,8100,8100,54 lb per day-animal, ,-9001695,4286871
481,Kenneth MacGibbon Dairy,"139 Westglow Rd, Statesville",NC,28625,36.0194,-80.9328,Dairy cattle,CATTLE (Dairy calf);,SIS0241, ,0,675,675,27 lb per day-animal, ,-9009398,4303292
482,Kenneth MacGibbon Dairy,"139 Westglow Rd, Statesville",NC,28625,36.0194,-80.9328,Dairy cattle,CATTLE (Dairy Heifer);,SIS0241, ,0,5670,5670,54 lb per day-animal, ,-9009398,4303292
483,Kenneth MacGibbon Dairy,"139 Westglow Rd, Statesville",NC,28625,36.0194,-80.9328,Dairy cattle,CATTLE (Dairy dry cow);,SIS0241, ,0,2550,2550,85 lb per day-animal, ,-9009398,4303292
484,Kenneth MacGibbon Dairy,"139 Westglow Rd, Statesville",NC,28625,36.0194,-80.9328,Dairy cattle,CATTLE (Dairy);,SIS0241, ,0,28640,28640,179 lb per day-animal, ,-9009398,4303292
485,Triple G Farms,"635 Bess Rd, Statesville",NC,28625,35.955,-80.9083,Dairy cattle,CATTLE (Dairy dry cow);,SIS0241, ,0,8500,8500,85 lb per day-animal, ,-9006671,4294432
486,Triple G Farms,"635 Bess Rd, Statesville",NC,28625,35.955,-80.9083,Dairy cattle,CATTLE (Dairy);,SIS0241, ,0,214800,214800,179 lb per day-animal, ,-9006671,4294432
487,Dusty Road Jersey Farm,"264 Loggerhead Rd, Statesville",NC,28625,35.8664,-80.7333,Dairy cattle,CATTLE (Dairy calf);,SIS0241, ,0,945,945,27 lb per day-animal, ,-8987190,4282255
488,Dusty Road Jersey Farm,"264 Loggerhead Rd, Statesville",NC,28625,35.8664,-80.7333,Dairy cattle,CATTLE (Dairy Heifer);,SIS0241, ,0,1080,1080,54 lb per day-animal, ,-8987190,4282255
489,Dusty Road Jersey Farm,"264 Loggerhead Rd, Statesville",NC,28625,35.8664,-80.7333,Dairy cattle,CATTLE (Dairy);,SIS0241, ,0,43855,43855,179 lb per day-animal, ,-8987190,4282255
490,Robertson Dairy Farm,"1282 Jennings Rd, Statesville",NC,28625,35.9106,-80.8722,Dairy cattle,CATTLE (Dairy calf);,SIS0241, ,0,675,675,27 lb per day-animal, ,-9002652,4288328
491,Robertson Dairy Farm,"1282 Jennings Rd, Statesville",NC,28625,35.9106,-80.8722,Dairy cattle,CATTLE (Dairy Heifer);,SIS0241, ,0,1080,1080,54 lb per day-animal, ,-9002652,4288328
492,Robertson Dairy Farm,"1282 Jennings Rd, Statesville",NC,28625,35.9106,-80.8722,Dairy cattle,CATTLE (Dairy dry cow);,SIS0241, ,0,3400,3400,85 lb per day-animal, ,-9002652,4288328
493,Robertson Dairy Farm,"1282 Jennings Rd, Statesville",NC,28625,35.9106,-80.8722,Dairy cattle,CATTLE (Dairy);,SIS0241, ,0,26850,26850,179 lb per day-animal, ,-9002652,4288328
494,Boger Farm,"185 Boger Farm Dr, Harmony",NC,28634,35.9267,-80.7233,Dairy cattle,CATTLE (Dairy);,SIS0241, ,0,35800,35800,179 lb per day-animal, ,-8986077,4290541
495,"Busy Bee Farms, Inc./Neal P. Johnson Dairy","Ivey Oak Rd, Statesville",NC,28625,35.9272,-80.9078,Dairy cattle,CATTLE (Dairy calf);,SIS0241, ,0,1080,1080,27 lb per day-animal, ,-9006615,4290610
496,"Busy Bee Farms, Inc./Neal P. Johnson Dairy","Ivey Oak Rd, Statesville",NC,28625,35.9272,-80.9078,Dairy cattle,CATTLE (Dairy Heifer);,SIS0241, ,0,4860,4860,54 lb per day-animal, ,-9006615,4290610
497,"Busy Bee Farms, Inc./Neal P. Johnson Dairy","Ivey Oak Rd, Statesville",NC,28625,35.9272,-80.9078,Dairy cattle,CATTLE (Dairy dry cow);,SIS0241, ,0,3825,3825,85 lb per day-animal, ,-9006615,4290610
498,"Busy Bee Farms, Inc./Neal P. Johnson Dairy","Ivey Oak Rd, Statesville",NC,28625,35.9272,-80.9078,Dairy cattle,CATTLE (Dairy);,SIS0241, ,0,26850,26850,179 lb per day-animal, ,-9006615,4290610
499,"Cartner Farms, Inc.","140 Heartland Dr, Statesville",NC,28625,35.9111,-80.7403,Dairy cattle,CATTLE (Dairy Heifer);,SIS0241, ,0,9450,9450,54 lb per day-animal, ,-8987969,4288397
500,"Cartner Farms, Inc.","140 Heartland Dr, Statesville",NC,28625,35.9111,-80.7403,Dairy cattle,CATTLE (Dairy dry cow);,SIS0241, ,0,6375,6375,85 lb per day-animal, ,-8987969,4288397
501,"Cartner Farms, Inc.","140 Heartland Dr, Statesville",NC,28625,35.9111,-80.7403,Dairy cattle,CATTLE (Dairy);,SIS0241, ,0,49225,49225,179 lb per day-animal, ,-8987969,4288397
502,Mark Johnson Dairy,"1082 Snow Creek Rd, Statesville",NC,28625,35.9139,-80.9475,Dairy cattle,CATTLE (Dairy);,SIS0241, ,0,62650,62650,179 lb per day-animal, ,-9011035,4288782
503,Lucky L. Jerseys,"837 Bailey Farm Rd, Statesville",NC,28625,35.8944,-80.9417,Dairy cattle,CATTLE (Dairy);,SIS0241, ,0,26850,26850,179 lb per day-animal, ,-9010389,4286102
504,"Triple J. Dairy, Inc.","248 Hill Dairy Rd, Statesville",NC,28625,35.9067,-80.96,Dairy cattle,CATTLE (Dairy);,SIS0241, ,0,40275,40275,179 lb per day-animal, ,-9012426,4287792
505,"Holland Farms of Olin, LLC","601 Olin Loop Rd, Olin",NC,28660,35.9514,-80.8417,Dairy cattle,CATTLE (Dairy calf);,SIS0241, ,0,4050,4050,27 lb per day-animal, ,-8999257,4293937
506,"Holland Farms of Olin, LLC","601 Olin Loop Rd, Olin",NC,28660,35.9514,-80.8417,Dairy cattle,CATTLE (Dairy Heifer);,SIS0241, ,0,8640,8640,54 lb per day-animal, ,-8999257,4293937
507,"Holland Farms of Olin, LLC","601 Olin Loop Rd, Olin",NC,28660,35.9514,-80.8417,Dairy cattle,CATTLE (Dairy dry cow);,SIS0241, ,0,5100,5100,85 lb per day-animal, ,-8999257,4293937
508,"Holland Farms of Olin, LLC","601 Olin Loop Rd, Olin",NC,28660,35.9514,-80.8417,Dairy cattle,CATTLE (Dairy);,SIS0241, ,0,125121,125121,179 lb per day-animal, ,-8999257,4293937
509,Galliher Dairy Farm,"2710 Sandy Springs Rd, Harmony",NC,28634,36.0286,-80.7183,Dairy cattle,CATTLE (Dairy dry cow);,SIS0241, ,0,5100,5100,85 lb per day-animal, ,-8985520,4304558
510,Galliher Dairy Farm,"2710 Sandy Springs Rd, Harmony",NC,28634,36.0286,-80.7183,Dairy cattle,CATTLE (Dairy);,SIS0241, ,0,107400,107400,179 lb per day-animal, ,-8985520,4304558
511,Gar-Mac Dairy,"3856 Crouse School Rd, Crouse",NC,28033,35.4167,-81.32,Dairy cattle,CATTLE (Dairy Heifer);,SIS0241, ,0,16470,16470,54 lb per day-animal, ,-9052501,4220655
512,Gar-Mac Dairy,"3856 Crouse School Rd, Crouse",NC,28033,35.4167,-81.32,Dairy cattle,CATTLE (Dairy dry cow);,SIS0241, ,0,16150,16150,85 lb per day-animal, ,-9052501,4220655
513,Gar-Mac Dairy,"3856 Crouse School Rd, Crouse",NC,28033,35.4167,-81.32,Dairy cattle,CATTLE (Dairy);,SIS0241, ,0,152150,152150,179 lb per day-animal, ,-9052501,4220655
514,Beam Dairy,"3025 Johnstown Rd, Cherryville",NC,28021,35.4258,-81.3817,Dairy cattle,CATTLE (Dairy calf);,SIS0241, ,0,2700,2700,27 lb per day-animal, ,-9059370,4221898
515,Beam Dairy,"3025 Johnstown Rd, Cherryville",NC,28021,35.4258,-81.3817,Dairy cattle,CATTLE (Dairy Heifer);,SIS0241, ,0,3780,3780,54 lb per day-animal, ,-9059370,4221898
516,Beam Dairy,"3025 Johnstown Rd, Cherryville",NC,28021,35.4258,-81.3817,Dairy cattle,CATTLE (Dairy dry cow);,SIS0241, ,0,21250,21250,85 lb per day-animal, ,-9059370,4221898
517,Beam Dairy,"3025 Johnstown Rd, Cherryville",NC,28021,35.4258,-81.3817,Dairy cattle,CATTLE (Dairy);,SIS0241, ,0,179000,179000,179 lb per day-animal, ,-9059370,4221898
518,"Lynch's Dairy, Inc.","3096 Buffalo Shoals Rd, Maiden",NC,28650,35.5472,-81.1694,Dairy cattle,CATTLE (Dairy calf);,SIS0241, ,0,675,675,27 lb per day-animal, ,-9035737,4238495
519,"Lynch's Dairy, Inc.","3096 Buffalo Shoals Rd, Maiden",NC,28650,35.5472,-81.1694,Dairy cattle,CATTLE (Dairy Heifer);,SIS0241, ,0,1350,1350,54 lb per day-animal, ,-9035737,4238495
520,"Lynch's Dairy, Inc.","3096 Buffalo Shoals Rd, Maiden",NC,28650,35.5472,-81.1694,Dairy cattle,CATTLE (Dairy dry cow);,SIS0241, ,0,2125,2125,85 lb per day-animal, ,-9035737,4238495
521,"Lynch's Dairy, Inc.","3096 Buffalo Shoals Rd, Maiden",NC,28650,35.5472,-81.1694,Dairy cattle,CATTLE (Dairy);,SIS0241, ,0,17900,17900,179 lb per day-animal, ,-9035737,4238495
522,Treasure Chest Jerseys,"3514 Hwy 182, Lincolnton",NC,28092,35.4556,-81.3511,Dairy cattle,CATTLE (Dairy Heifer);,SIS0241, ,0,3078,3078,54 lb per day-animal, ,-9055963,4225970
523,Treasure Chest Jerseys,"3514 Hwy 182, Lincolnton",NC,28092,35.4556,-81.3511,Dairy cattle,CATTLE (Dairy dry cow);,SIS0241, ,0,3655,3655,85 lb per day-animal, ,-9055963,4225970
524,Treasure Chest Jerseys,"3514 Hwy 182, Lincolnton",NC,28092,35.4556,-81.3511,Dairy cattle,CATTLE (Dairy);,SIS0241, ,0,30430,30430,179 lb per day-animal, ,-9055963,4225970
525,Piedmont Jerseys,"4399 Ritchie Rd, Lincolnton",NC,28092,35.5458,-81.2839,Dairy cattle,CATTLE (Dairy calf);,SIS0241, ,0,1350,1350,27 lb per day-animal, ,-9048483,4238304
526,Piedmont Jerseys,"4399 Ritchie Rd, Lincolnton",NC,28092,35.5458,-81.2839,Dairy cattle,CATTLE (Dairy Heifer);,SIS0241, ,0,8640,8640,54 lb per day-animal, ,-9048483,4238304
527,Piedmont Jerseys,"4399 Ritchie Rd, Lincolnton",NC,28092,35.5458,-81.2839,Dairy cattle,CATTLE (Dairy dry cow);,SIS0241, ,0,4250,4250,85 lb per day-animal, ,-9048483,4238304
528,Piedmont Jerseys,"4399 Ritchie Rd, Lincolnton",NC,28092,35.5458,-81.2839,Dairy cattle,CATTLE (Dairy);,SIS0241, ,0,40275,40275,179 lb per day-animal, ,-9048483,4238304
529,Milton Latta & Sons Dairy Inc,"3315 Edmund Latta Rd, Hillsborough",NC,27278,36.1397,-79.0833,Dairy cattle,CATTLE (Dairy);,SIS0241, ,0,35800,35800,179 lb per day-animal, ,-8803513,4319862
530,Teer Farms Inc,Chapel Hill,NC,27516,35.9542,-79.2269,Dairy cattle,CATTLE (Dairy);,SIS0241, ,0,26850,26850,179 lb per day-animal, ,-8819498,4294322
531,Cross Creek Dairy,"Jones Rd, Hurdle Mills",NC,27541,36.2639,-79.1256,Dairy cattle,CATTLE (Dairy);,SIS0241, ,0,35800,35800,179 lb per day-animal, ,-8808222,4336996
532,Buttke Dairy Enterprises,"6022 Walker Mill Rd, Randleman",NC,27317,35.8433,-79.8433,Dairy cattle,CATTLE (Dairy);,SIS0241, ,0,286400,286400,179 lb per day-animal, ,-8888116,4279082
533,"Green Valley Farm, LLC","1001 Hockett Dairy Rd, Randleman",NC,27317,35.9,-79.8361,Dairy cattle,CATTLE (Dairy Heifer);,SIS0241, ,0,43200,43200,54 lb per day-animal, ,-8887314,4286871
534,"Green Valley Farm, LLC","1001 Hockett Dairy Rd, Randleman",NC,27317,35.9,-79.8361,Dairy cattle,CATTLE (Dairy);,SIS0241, ,0,286400,286400,179 lb per day-animal, ,-8887314,4286871
535,Cashatt Dairy,"5631 Davis Country Rd, Randleman",NC,27317,35.8619,-79.8386,Dairy cattle,CATTLE (Dairy);,SIS0241, ,0,49941,49941,179 lb per day-animal, ,-8887593,4281637
536,McCain Dairy,"1904 Lake Lucas Rd, Sophia",NC,27350,35.7456,-79.8617,Dairy cattle,CATTLE (Dairy calf);,SIS0241, ,0,8694,8694,27 lb per day-animal, ,-8890164,4265674
537,McCain Dairy,"1904 Lake Lucas Rd, Sophia",NC,27350,35.7456,-79.8617,Dairy cattle,CATTLE (Dairy Heifer);,SIS0241, ,0,15120,15120,54 lb per day-animal, ,-8890164,4265674
538,McCain Dairy,"1904 Lake Lucas Rd, Sophia",NC,27350,35.7456,-79.8617,Dairy cattle,CATTLE (Dairy);,SIS0241, ,0,125121,125121,179 lb per day-animal, ,-8890164,4265674
539,Allen's Dairy,"3629 Quentin Dr, Asheboro",NC,27205,35.6875,-79.6178,Dairy cattle,CATTLE (Dairy);,SIS0241, ,0,53700,53700,179 lb per day-animal, ,-8863013,4257708
540,Williams Dairy,"3386 Williams Dairy Rd, Liberty",NC,27298,35.8247,-79.6539,Dairy cattle,CATTLE (Dairy);,SIS0241, ,0,44750,44750,179 lb per day-animal, ,-8867032,4276528
541,Wright Farm,"1228 Grantville Ln, Franklinville",NC,27248,35.7022,-79.6908,Dairy cattle,CATTLE (Dairy);,SIS0241, ,0,31325,31325,179 lb per day-animal, ,-8871140,4259723
542,Beeson Farm,"4877 Racine Rd, Climax",NC,27233,35.8517,-79.7333,Dairy cattle,CATTLE (Dairy);,SIS0241, ,0,53700,53700,179 lb per day-animal, ,-8875871,4280236
543,"Coltrane Dairy, LLC","1284 Bantam Rd, Pleasant Garden",NC,27313,35.8986,-79.7756,Dairy cattle,CATTLE (Dairy calf);,SIS0241, ,0,4050,4050,27 lb per day-animal, ,-8880579,4286679
544,"Coltrane Dairy, LLC","1284 Bantam Rd, Pleasant Garden",NC,27313,35.8986,-79.7756,Dairy cattle,CATTLE (Dairy Heifer);,SIS0241, ,0,43200,43200,54 lb per day-animal, ,-8880579,4286679
545,"Coltrane Dairy, LLC","1284 Bantam Rd, Pleasant Garden",NC,27313,35.8986,-79.7756,Dairy cattle,CATTLE (Dairy dry cow);,SIS0241, ,0,8500,8500,85 lb per day-animal, ,-8880579,4286679
546,"Coltrane Dairy, LLC","1284 Bantam Rd, Pleasant Garden",NC,27313,35.8986,-79.7756,Dairy cattle,CATTLE (Dairy);,SIS0241, ,0,179000,179000,179 lb per day-animal, ,-8880579,4286679
547,Koopman Dairies Inc,"4105 Meredall Farm Rd, Liberty",NC,27298,35.8561,-79.6408,Dairy cattle,CATTLE (Dairy);,SIS0241, ,0,895000,895000,179 lb per day-animal, ,-8865574,4280840
548,"Turner Dairy, LLC","1064 Turner Dairy Rd, Randleman",NC,27317,35.7892,-79.8475,Dairy cattle,CATTLE (Dairy);,SIS0241, ,0,71600,71600,179 lb per day-animal, ,-8888583,4271655
549,Wright Farm,"3540 Wright Farm Ln, Franklinville",NC,27248,35.716,-79.692,Dairy cattle,CATTLE (Dairy calf);,SIS0241, ,0,1350,1350,27 lb per day-animal, ,-8871273,4261614
550,Wright Farm,"3540 Wright Farm Ln, Franklinville",NC,27248,35.716,-79.692,Dairy cattle,CATTLE (Dairy);,SIS0241, ,0,53700,53700,179 lb per day-animal, ,-8871273,4261614
551,Beville Bros. Dairy Farm,"240 Beville Rd, Reidsville",NC,27320,36.255,-79.7117,Dairy cattle,CATTLE (Dairy);,SIS0241, ,0,47256,47256,179 lb per day-animal, ,-8873466,4335767
552,"Wright Dairy of Rockingham County, Inc.","315 Wright Dairy Rd, Reidsville",NC,27320,36.295,-79.7708,Dairy cattle,CATTLE (Dairy);,SIS0241, ,0,34010,34010,179 lb per day-animal, ,-8880045,4341290
553,Piedmont Research Station/NCDACS,"8350 Sherrills Ford Rd, Salisbury",NC,28147,35.6917,-80.625,Dairy cattle,CATTLE (Dairy);,SIS0241, ,0,26850,26850,179 lb per day-animal, ,-8975134,4258283
554,"Hoffner Bros. Dairy, LLC","420 Ketchie Rd, Mount Ulla",NC,28125,35.7067,-80.71,Dairy cattle,CATTLE (Dairy Heifer);,SIS0241, ,0,5400,5400,54 lb per day-animal, ,-8984596,4260339
555,"Hoffner Bros. Dairy, LLC","420 Ketchie Rd, Mount Ulla",NC,28125,35.7067,-80.71,Dairy cattle,CATTLE (Dairy);,SIS0241, ,0,53700,53700,179 lb per day-animal, ,-8984596,4260339
556,Lazy 5 Ranch,"155 Parker's Loop, Mount Ulla",NC,28125,35.6583,-80.7417,Dairy cattle,CATTLE (Dairy);,SIS0241, ,0, ,0,179 lb per day-animal, ,-8988125,4253706
557,Scott Davis Farm,"6935 Hwy 152 W, Mooresville",NC,28115,35.5728,-80.6994,Dairy cattle,CATTLE (Dairy);,SIS0241, ,0,35800,35800,179 lb per day-animal, ,-8983416,4241998
558,Miller Farm,"315 Weaver Rd, Salisbury",NC,28147,35.609804,-80.600015,Dairy cattle,CATTLE (Dairy);,SIS0241, ,0,35800,35800,179 lb per day-animal, ,-8972353,4247064
559,Osborne Dairy,"385 Hamps Dairy Rd, Cleveland",NC,27013,35.7753,-80.6358,Dairy cattle,CATTLE (Dairy calf);,SIS0241, ,0,540,540,27 lb per day-animal, ,-8976337,4269748
560,Osborne Dairy,"385 Hamps Dairy Rd, Cleveland",NC,27013,35.7753,-80.6358,Dairy cattle,CATTLE (Dairy Heifer);,SIS0241, ,0,2700,2700,54 lb per day-animal, ,-8976337,4269748
561,Osborne Dairy,"385 Hamps Dairy Rd, Cleveland",NC,27013,35.7753,-80.6358,Dairy cattle,CATTLE (Dairy dry cow);,SIS0241, ,0,1700,1700,85 lb per day-animal, ,-8976337,4269748
562,Osborne Dairy,"385 Hamps Dairy Rd, Cleveland",NC,27013,35.7753,-80.6358,Dairy cattle,CATTLE (Dairy);,SIS0241, ,0,35800,35800,179 lb per day-animal, ,-8976337,4269748
563,Amity Hills Farm,"2035 Mt Tabor Church Rd, Cleveland",NC,27013,35.681883,-80.76645,Dairy cattle,CATTLE (Dairy);,SIS0241, ,0,53700,53700,179 lb per day-animal, ,-8990880,4256938
564,Johnny Moore Farm,"2225 Hall Rd, Mount Ulla",NC,28125,35.704928,-80.702283,Dairy cattle,CATTLE (Dairy);,SIS0241, ,0,23270,23270,179 lb per day-animal, ,-8983737,4260096
565,La-Foster Dairy (Carson Road),"1685 Carson Rd, Cleveland",NC,27013,35.780038,-80.626053,Dairy cattle,CATTLE (Dairy);,SIS0241, ,0,89500,89500,179 lb per day-animal, ,-8975252,4270398
566,"KooBa Dairy, Inc.","1719 Penny Tew Mill Rd, Roseboro",NC,28382,35.120688,-78.505225,Dairy cattle,CATTLE (Dairy);,SIS0241, ,0,252032,252032,179 lb per day-animal, ,-8739162,4180295
567,Smith Dairy,"42757 Loop Rd, Norwood",NC,28128,35.1778,-80.1439,Dairy cattle,CATTLE (Dairy);,SIS0241, ,0,74822,74822,179 lb per day-animal, ,-8921578,4188071
568,Shorehill Farm,"2331 Rosebud Rd, Walnut Cove",NC,27052,36.3069,-80.1961,Dairy cattle,CATTLE (Dairy);,SIS0241, ,0,22375,22375,179 lb per day-animal, ,-8927389,4342934
569,Maple Ridge Dairy,"299 Horton Rd, Mount Airy",NC,27030,36.5014,-80.7208,Dairy cattle,CATTLE (Dairy Heifer);,SIS0241, ,0,5400,5400,54 lb per day-animal, ,-8985799,4369835
570,Maple Ridge Dairy,"299 Horton Rd, Mount Airy",NC,27030,36.5014,-80.7208,Dairy cattle,CATTLE (Dairy);,SIS0241, ,0,107400,107400,179 lb per day-animal, ,-8985799,4369835
571,Lake Wheeler Rd Field Lab-Dairy Educational Unit,"301 Dairy Ln, Raleigh",NC,27603,35.7222,-78.6708,Dairy cattle,CATTLE (Dairy);,SIS0241, ,0,34368,34368,179 lb per day-animal, ,-8757594,4262465
572,"NCDA&CS Cherry Research Farm, Dairy Unit","201 Steven Mill Rd, Goldsboro",NC,27530,35.386376,-78.029778,Dairy cattle,CATTLE (Dairy);,SIS0241, ,0,28640,28640,179 lb per day-animal, ,-8686235,4216514
573,Myers Dairy Inc.,"3938 Bethel Rd, Jonesville",NC,28642,36.2281,-80.8789,Dairy cattle,CATTLE (Dairy calf);,SIS0241, ,0,3375,3375,27 lb per day-animal, ,-9003398,4332054
574,Myers Dairy Inc.,"3938 Bethel Rd, Jonesville",NC,28642,36.2281,-80.8789,Dairy cattle,CATTLE (Dairy Heifer);,SIS0241, ,0,8640,8640,54 lb per day-animal, ,-9003398,4332054
575,Myers Dairy Inc.,"3938 Bethel Rd, Jonesville",NC,28642,36.2281,-80.8789,Dairy cattle,CATTLE (Dairy dry cow);,SIS0241, ,0,17000,17000,85 lb per day-animal, ,-9003398,4332054
576,Myers Dairy Inc.,"3938 Bethel Rd, Jonesville",NC,28642,36.2281,-80.8789,Dairy cattle,CATTLE (Dairy);,SIS0241, ,0,187950,187950,179 lb per day-animal, ,-9003398,4332054
577,Robert Hayes Farm,"1905 Shoaley Branch Church Rd, Elkin, NC 28621, USA",NC,0,36.3211,-80.9278,Dairy cattle,CATTLE (Dairy);,SIS0241, ,0,24344,24344,179 lb per day-animal, ,-9008842,4344896
578,Cole-Gaige Farm,"1205 US Hwy 21, Hamptonville",NC,27020,36.0511,-80.7522,Dairy cattle,CATTLE (Dairy calf);,SIS0241, ,0,11340,11340,27 lb per day-animal, ,-8989294,4307656
579,Cole-Gaige Farm,"1205 US Hwy 21, Hamptonville",NC,27020,36.0511,-80.7522,Dairy cattle,CATTLE (Dairy Heifer);,SIS0241, ,0,63180,63180,54 lb per day-animal, ,-8989294,4307656
580,Armo LLC,"Fish Brandon Rd, Yadkinville",NC,27055,36.0681,-80.6483,Dairy cattle,CATTLE (Dairy);,SIS0241, ,0,67125,67125,179 lb per day-animal, ,-8977728,4309997
581,Shady Grove Dairy,"4408 Shady Grove Church Rd, East Bend",NC,27018,36.2331,-80.5258,Dairy cattle,CATTLE (Dairy calf);,SIS0241, ,0,3240,3240,27 lb per day-animal, ,-8964091,4332744
582,Shady Grove Dairy,"4408 Shady Grove Church Rd, East Bend",NC,27018,36.2331,-80.5258,Dairy cattle,CATTLE (Dairy Heifer);,SIS0241, ,0,1080,1080,54 lb per day-animal, ,-8964091,4332744
583,Shady Grove Dairy,"4408 Shady Grove Church Rd, East Bend",NC,27018,36.2331,-80.5258,Dairy cattle,CATTLE (Dairy);,SIS0241, ,0,239860,239860,179 lb per day-animal, ,-8964091,4332744
584,"Riley livestock, Inc.","5146 Crater Rd, Hamptonville",NC,27020,36.099809,-80.837931,Dairy cattle,CATTLE (Dairy Heifer);,SIS0241, ,0,48600,48600,54 lb per day-animal, ,-8998838,4314365
585,Hollidays Farm,"1666 Major Hill Rd, Snow Camp",NC,27349,35.8792,-79.3758,Dairy cattle,CATTLE (Dairy);,SIS0241, ,0, ,0,179 lb per day-animal, ,-8836074,4284013
586,Sears Day Dairy,"6187 Huntsboro Rd, Oxford",NC,27565,36.3567,-78.5408,Dairy cattle,CATTLE (Dairy);,SIS0241, ,0, ,0,179 lb per day-animal, ,-8743122,4349815
587,"Bowman Dairy, Inc.","6506 Bowman Dairy Rd, Julian",NC,27283,35.945,-79.6192,Dairy cattle,CATTLE (Dairy);,SIS0241, ,0,40275,40275,179 lb per day-animal, ,-8863169,4293057
588,Phillip West Farm,"251 Hwy 4, Littleton",NC,27850,36.4044,-77.9056,Dairy cattle,CATTLE (Dairy);,SIS0241, ,0, ,0,179 lb per day-animal, ,-8672412,4356411
589,Millstone Dairy Farm,"1163 Snow Creek Rd, Stony Point",NC,28678,35.9111,-80.8667,Dairy cattle,CATTLE (Dairy);,SIS0241, ,0, ,0,179 lb per day-animal, ,-9002040,4288397
590,Stamey Farm,"255 Stamey Farm Rd, Statesville",NC,28677,35.7778,-80.9736,Dairy cattle,CATTLE (Dairy calf);,SIS0241, ,0,1080,1080,27 lb per day-animal, ,-9013940,4270091
591,Stamey Farm,"255 Stamey Farm Rd, Statesville",NC,28677,35.7778,-80.9736,Dairy cattle,CATTLE (Dairy Heifer);,SIS0241, ,0,8100,8100,54 lb per day-animal, ,-9013940,4270091
592,Stamey Farm,"255 Stamey Farm Rd, Statesville",NC,28677,35.7778,-80.9736,Dairy cattle,CATTLE (Dairy dry cow);,SIS0241, ,0,2125,2125,85 lb per day-animal, ,-9013940,4270091
593,Stamey Farm,"255 Stamey Farm Rd, Statesville",NC,28677,35.7778,-80.9736,Dairy cattle,CATTLE (Dairy);,SIS0241, ,0,23270,23270,179 lb per day-animal, ,-9013940,4270091
594,Valle Verde Inc,"3424 Valle Verde Rd, Nashville",NC,27856,36.0456,-78.0111,Dairy cattle,CATTLE (Dairy);,SIS0241, ,0, ,0,179 lb per day-animal, ,-8684156,4306899
595,Milton Latta & Sons Dairy Inc,"3315 Edmund Latta Rd, Hillsborough",NC,27278,36.1397,-79.0833,Dairy cattle,CATTLE (Dairy);,SIS0241, ,0, ,0,179 lb per day-animal, ,-8803513,4319862
596,Maple View Farm,"3111 Dairyland Rd, Hillsborough",NC,27278,35.9803,-79.1456,Dairy cattle,CATTLE (Dairy);,SIS0241, ,0,26850,26850,179 lb per day-animal, ,-8810448,4297912
597,"Sykes Dairy, Inc.","5702 Oak Grove Rd, Mebane",NC,27302,35.9961,-79.2219,Dairy cattle,CATTLE (Dairy);,SIS0241, ,0, ,0,179 lb per day-animal, ,-8818942,4300086
598,Pence Dairy,"4930 Chenault Rd, Cleveland",NC,27013,35.8083,-80.7083,Dairy cattle,CATTLE (Dairy calf);,SIS0241, ,0, ,0,27 lb per day-animal, ,-8984407,4274277
599,Burl Hathcock Farm,"6037 Aldridge Rd, Norwood",NC,28128,35.1958,-80.2044,Dairy cattle,CATTLE (Dairy);,SIS0241, ,0, ,0,179 lb per day-animal, ,-8928313,4190522
600,Providence Farm,"1161 Providence Ln, Pine Hall, NC 27042, USA",NC,0,36.3556,-80.0708,Dairy cattle,CATTLE (Dairy);,SIS0241, ,0,25060,25060,179 lb per day-animal, ,-8913441,4349663
601,White Ridge Dairy Farm,"809 Rooker Dairy Rd, Norlina",NC,27563,36.5361,-78.2086,Dairy cattle,CATTLE (Dairy);,SIS0241, ,0, ,0,179 lb per day-animal, ,-8706142,4374642
602,Gladden Dairy,"5983 Smith Rd, Vale",NC,28168,35.5833,-81.39,Dairy cattle,CATTLE (Dairy);,SIS0241, ,0,26850,26850,179 lb per day-animal, ,-9060294,4243435
603,Taproot Dairy,"735 Butler Bridge Rd, Fletcher",NC,28732,35.4083,-82.5306,Dairy cattle,CATTLE (Dairy);,SIS0241, ,0,143200,143200,179 lb per day-animal, ,-9187265,4219508
604,Small Acres Dairy,"1470 Jeffress Rd, Mills River",NC,28759,35.3972,-82.5528,Dairy cattle,CATTLE (Dairy calf);,SIS0241, ,0,4050,4050,27 lb per day-animal, ,-9189736,4217992
605,Small Acres Dairy,"1470 Jeffress Rd, Mills River",NC,28759,35.3972,-82.5528,Dairy cattle,CATTLE (Dairy);,SIS0241, ,0,44750,44750,179 lb per day-animal, ,-9189736,4217992
606,Loyd Farm,"204 Lloyd Rd, Statesville",NC,28625,35.8986,-80.8639,Dairy cattle,CATTLE (Dairy calf);,SIS0241, ,0,2700,2700,27 lb per day-animal, ,-9001729,4286679
607,Loyd Farm,"204 Lloyd Rd, Statesville",NC,28625,35.8986,-80.8639,Dairy cattle,CATTLE (Dairy dry cow);,SIS0241, ,0,25500,25500,85 lb per day-animal, ,-9001729,4286679
608,Loyd Farm,"204 Lloyd Rd, Statesville",NC,28625,35.8986,-80.8639,Dairy cattle,CATTLE (Dairy);,SIS0241, ,0,71600,71600,179 lb per day-animal, ,-9001729,4286679
609,A&J Dairy,1970 Bradford Road Tignall,GA,30668,33.8687997,-82.6982082,Dairy cattle,CATTLE (Dairy);,SIS0241, ,0, ,0, , ,-9206436,4011301
610,B&B Dairy Inc,2331 Seven Islands Road Buckhead,GA,30625,33.5253293,-83.3699669,Dairy cattle,CATTLE (Dairy);,SIS0241, ,0, ,0, , ,-9281031,3965001
611,B&S Dairy,310 Chinaberry Lane Abbeville,GA,31001,31.9119097,-83.384226,Dairy cattle,CATTLE (Dairy);,SIS0241, ,0, ,0, , ,-9282383,3751711
612,Barrington Dairy (Barn 1),500 Progressive Road Montezuma,GA,31063,32.3618333,-83.9741734,Dairy cattle,CATTLE (Dairy);,SIS0241, ,0, ,0, , ,-9347942,3810896
613,Big Hill Dairy,1337 Tom Adams Rd Montezuma,GA,31063,32.3935977,-83.9789471,Dairy cattle,CATTLE (Dairy);,SIS0241, ,0, ,0, ,Relocated,-9347933,3811869
614,Birdsville Dairy,902 Rosier Road Waynesboro,GA,30830,32.96436,-82.1551274,Dairy cattle,CATTLE (Dairy);,SIS0241, ,0, ,0, ,Relocated,-9143624,3889367
615,Bridges Brothers Farms Inc,1317 Fosters Mill Road Rome,GA,30161,34.218083,-85.343086,Dairy cattle,CATTLE (Dairy);,SIS0241, ,0, ,0, ,Relocated,-9498864,4062689
616,Brooksco Dairy LLC,1961 Monument Church Road Quitman,GA,31643,30.8129729,-83.5163908,Dairy cattle,CATTLE (Dairy);,SIS0241, ,0, ,0, ,Relocated,-9294885,3608304
617,Cabaniss Dairy LLC,448 Sunset Drive Hwy Maxeys,GA,30671,33.767947,-83.177027,Dairy cattle,CATTLE (Dairy);,SIS0241, ,0, ,0, ,Relocated,-9258943,3997560
618,Cactus Family Farms CFF-1,2912 Cal Maine Road Metter,GA,30452,32.4087363,-81.9283142,Dairy cattle,CATTLE (Dairy);,SIS0241, ,0, ,0, ,Relocated,-9120742,3820375
619,Coastal Plain Experiment Station- Dairy Research Center,795 Animal Science Drive Tifton,GA,31793,31.4927606,-83.5278386,Dairy cattle,CATTLE (Dairy);,SIS0241, ,0, ,0, ,Relocated,-9298377,3697165
620,Davis Dairy LLC,"430 Ga Highway 203, Baxley",GA,31513,31.5609085,-81.9756232,Dairy cattle,CATTLE (Dairy);,SIS0241, ,0, ,0, ,Unidentifialbe,-9125504,3705772
621,Don Son Farms,130 Morrison Lane Folkston,GA,31537,31.0408012,-81.9480397,Dairy cattle,CATTLE (Dairy);,SIS0241, ,0, ,0, , ,-9122265,3638108
622,Douglas Chambers Dairy Inc.,300 Mayzing Dairy Rd Macon,GA,31217,32.7841099,-83.6390163,Dairy cattle,CATTLE (Dairy);,SIS0241, ,0, ,0,Relocated, ,-9288838,3887176
623,Eatonton Dairy Farm,214 Greensboro Rd Eatonton,GA,31024,33.346607,-83.3545709,Dairy cattle,CATTLE (Dairy);,SIS0241, ,0, ,0, , ,-9279277,3941324
624,Eberly Family Farm,490 Carpenter Ln Waynesboro,GA,30830,32.9658248,-82.1664036,Dairy cattle,CATTLE (Dairy);,SIS0241, ,0, ,0, , ,-9146939,3889394
625,Girard Dairy,8822 Hwy 23 South Girard,GA,30426,33.0633325,-81.7520373,Dairy cattle,CATTLE (Dairy);,SIS0241, ,0, ,0, , ,-9101166,3902720
626,"Godfrey Dairy, Inc.",3290 Godfrey Rd Madison,GA,30650,33.4430523,-83.5070539,Dairy cattle,CATTLE (Dairy);,SIS0241, ,0, ,0, , ,-9295590,3953885
627,"Grassy Flats Dairy, LLC",3125 Plesant Hill Church Rd Pavo,GA,31778,31.0299824,-83.6463351,Dairy cattle,CATTLE (Dairy);,SIS0241, ,0, ,0, , ,-9311683,3636523
628,Green Glades Farm Inc.,302 Glades Rd Eatonton,GA,31024,33.3900061,-83.4500784,Dairy cattle,CATTLE (Dairy);,SIS0241, ,0, ,0, , ,-9289930,3946740
629,Green Hill Dairy LLC,160 Jersey Dr Quitman,GA,31643,30.8229314,-83.6004835,Dairy cattle,CATTLE (Dairy);,SIS0241, ,0, ,0, , ,-9306381,3611177
630,Green Meadows Dairy,1583 Louie D Newton Road Sylvania,GA,30467,32.5902785,-81.6093097,Dairy cattle,CATTLE (Dairy);,SIS0241, ,0, ,0, , ,-9084816,3840099
631,Greenstone Grazing #1,1801 Adams Rd Stapleton,GA,30823,33.166023,-82.421759,Dairy cattle,CATTLE (Dairy);,SIS0241, ,0, ,0, , ,-9174956,3917296
632,Greenstone Grazing #2,5244 Eden Church Road Louisville,GA,30434,32.9511392,-82.2962271,Dairy cattle,CATTLE (Dairy);,SIS0241, ,0, ,0, , ,-9161852,3888336
633,"Harmony Grove Dairy Farm, LLC",4097 GA 80 W Waynesboro,GA,30830,33.1027584,-82.1673285,Dairy cattle,CATTLE (Dairy);,SIS0241, ,0, ,0, , ,-9146712,3908220
634,Harrison Dairy,327 Gregory Mill Road Crandall,GA,30711,34.9576402,-84.7787281,Dairy cattle,CATTLE (Dairy);,SIS0241, ,0, ,0, , ,-9437735,4157964
635,Highbrighton Dairy (Barrington Dairy Barn 2),320 Highbrighton Dairy Road Montezuma,GA,31063,32.330171,-83.9225584,Dairy cattle,CATTLE (Dairy);,SIS0241, ,0, ,0, , ,-9341823,3806531
636,Hillcrest Farms Inc,3750 Iron Hill Rd Dearing,GA,30808,33.4017689,-82.3920902,Dairy cattle,CATTLE (Dairy);,SIS0241, ,0, ,0, , ,-9172003,3948988
637,Johnson Ranch,4092 Hwy 93 South Thomasville,GA,31792,30.790957,-84.1541419,Dairy cattle,CATTLE (Dairy);,SIS0241, ,0, ,0, ,Unidentifiable,-9366951,3601819
638,Jumping Gully Dairy LLC,1114 Magnolia Church Rd Pavo,GA,31778,30.9705325,-83.7213534,Dairy cattle,CATTLE (Dairy);,SIS0241, ,0, ,0, , ,-9319361,3628761
639,Key's Dairy,859 Twin Bridges Road Eatonton,GA,31024,33.19346,-83.411884,Dairy cattle,CATTLE (Dairy);,SIS0241, ,0, ,0, , ,-9286071,3921219
640,Kreider Dairy,1311 Dairy Farm Road Metter,GA,30439,32.4394823,-82.0013558,Dairy cattle,CATTLE (Dairy);,SIS0241, ,0, ,0, , ,-9128136,3820899
641,Leatherbrook Holsteins,2620 S Lee St Americus,GA,31709,32.0158135,-84.2187816,Dairy cattle,CATTLE (Dairy);,SIS0241, ,0, ,0, , ,-9373130,3763255
642,LeeCo Dairy (Lee County),"906 US-19, Leesburg",GA,31763,31.7321156,-84.1707423,Dairy cattle,CATTLE (Dairy);,SIS0241, ,0, ,0, , ,-9372328,3735348
643,Lone Oak Cattle Company,6795 Open Gap Road Metter,GA,30439,32.4443424,-82.1580209,Dairy cattle,CATTLE (Dairy);,SIS0241, ,0, ,0, , ,-9145475,3822009
644,Long Branch Dairy LLC,2445 Crawfordville Road White Plains,GA,30678,33.4898326,-82.985809,Dairy cattle,CATTLE (Dairy);,SIS0241, ,0, ,0, , ,-9237601,3960991
645,Martin Dairy LLP,1604 Ankerich Road Bowersville,GA,30516,34.3696591,-83.0285437,Dairy cattle,CATTLE (Dairy);,SIS0241, ,0, ,0, ,Relocated,-9243768,4079401
646,Messer Dairy Inc.,7187 State Rd Boston,GA,31626,30.7918613,-83.7898867,Dairy cattle,CATTLE (Dairy);,SIS0241, ,0, ,0, , ,-9322929,3617103
647,Milky Way Dairy,902 Rosier Road Waynesboro,GA,30830,32.96436,-82.1551274,Dairy cattle,CATTLE (Dairy);,SIS0241, ,0, ,0, ,Relocated,-9145440,3890731
648,Moody's Dairy,8126 Alma Hwy Waycross,GA,31503,31.3998709,-82.4375355,Dairy cattle,CATTLE (Dairy);,SIS0241, ,0, ,0, ,Relocated,-9176192,3685459
649,Newberry Dairy,355 Hancock Landing Road Waynesboro,GA,30830,33.1171618,-81.849561,Dairy cattle,CATTLE (Dairy);,SIS0241, ,0, ,0, , ,-9111603,3911333
650,"Ocmulgee Dairy, Inc.",203 Cullen Rd Bonaire,GA,31005,32.5549508,-83.5753125,Dairy cattle,CATTLE (Dairy);,SIS0241, ,0, ,0, , ,-9303194,3836491
651,Overholt Farms,2563 Perkins Farm Road Marshallville,GA,31057,32.3947936,-83.8919653,Dairy cattle,CATTLE (Dairy);,SIS0241, ,0, ,0, ,Relocated,-9339985,3814429
652,Peachey's and Cream Dairy,6550 US Hwy 221 S Bartow,GA,30413,32.8939054,-82.4728052,Dairy cattle,CATTLE (Dairy);,SIS0241, ,0, ,0, , ,-9181332,3881860
653,Pecan Grove Dairy LLC,2923 Jackson Dairy Road Baconton,GA,31716,31.3703258,-84.1407234,Dairy cattle,CATTLE (Dairy);,SIS0241, ,0, ,0, , ,-9366363,3680601
654,Pineland Dairy,902 Rosier Road Waynesboro,GA,30830,32.96436,-82.1551274,Dairy cattle,CATTLE (Dairy);,SIS0241, ,0, ,0, ,Relocated,-9143795,3889926
655,"Providence Dairy, Inc.",191 Cedar Grove Road Climax,GA,39834,30.8349051,-84.476294,Dairy cattle,CATTLE (Dairy);,SIS0241, ,0, ,0, , ,-9403952,3611404
656,R & D Dairy,610 Brent Road Barnesville,GA,30204,33.0090065,-84.0831738,Dairy cattle,CATTLE (Dairy);,SIS0241, ,0, ,0, , ,-9360330,3896578
657,"R.A. Moore Dairy, Inc",3000 Macedonia Road Union Point,GA,30669,33.7228033,-83.2432391,Dairy cattle,CATTLE (Dairy);,SIS0241, ,0, ,0, , ,-9266237,3992776
658,Roscoe Meeks Farm,6229 New Forest Hwy West Green,GA,31567,31.5728546,-82.726445,Dairy cattle,CATTLE (Dairy);,SIS0241, ,0, ,0, ,Relocated,-9209818,3707125
659,Scattered Acres Hog Farm,1771 Bay Branch Church Rd Claxton,GA,30417,32.078488,-81.9694609,Dairy cattle,CATTLE (Dairy);,SIS0241, ,0, ,0, , ,-9123896,3773836
660,Seven Oaks Dairy,4186 Hwy 23 S Waynesboro,GA,30830,33.1335518,-81.8751276,Dairy cattle,CATTLE (Dairy);,SIS0241, ,0, ,0, , ,-9114748,3912674
661,Smith Dairy Farm Inc,850 Centerville Road Rayle,GA,30660,33.8184291,-82.934507,Dairy cattle,CATTLE (Dairy);,SIS0241, ,0, ,0, , ,-9231774,4004648
662,Smith-Healy Farms Inc,5886 Banks Dairy Road Statesboro,GA,30458,32.4723511,-81.8534256,Dairy cattle,CATTLE (Dairy);,SIS0241, ,0, ,0, , ,-9114266,3826047
663,Southbrook Dairy LLC,3066 Thompson Road Quitman,GA,31643,30.7154225,-83.6801146,Dairy cattle,CATTLE (Dairy);,SIS0241, ,0, ,0, , ,-9315290,3595235
664,Southern Comfort Dairy,537 Coney Road N Cordele,GA,31015,31.9884783,-83.8696949,Dairy cattle,CATTLE (Dairy);,SIS0241, ,0, ,0, , ,-9336425,3762802
665,Sparkman Dairy LLC,1283 Rossman Dairy Rd Moultrie,GA,31768,31.2254438,-83.8546551,Dairy cattle,CATTLE (Dairy);,SIS0241, ,0, ,0, , ,-9334584,3661953
666,"Sunrise Dairy, Inc",157 Bethel Church Rd Eatonton,GA,31024,33.387821,-83.366056,Dairy cattle,CATTLE (Dairy);,SIS0241, ,0, ,0, , ,-9280158,3946682
667,T & W Farms Inc. #1,384 Lower Harmony Rd Eatonton,GA,31024,33.364817,-83.3556299,Dairy cattle,CATTLE (Dairy);,SIS0241, ,0, ,0, , ,-9279309,3944151
668,W Dairy LLC,4700 Monticell Hwy Madison,GA,30650,33.4594339,-83.5489202,Dairy cattle,CATTLE (Dairy);,SIS0241, ,0, ,0, , ,-9301551,3957207
669,Walnut Branch Farm,1246 Francis Rd Davisboro,GA,31018,32.9554688,-82.6084279,Dairy cattle,CATTLE (Dairy);,SIS0241, ,0, ,0, , ,-9194274,3889327
670,Walters Farms,176 Walters Rd Barnesville,GA,30204,33.071038,-84.0826831,Dairy cattle,CATTLE (Dairy);,SIS0241, ,0, ,0, , ,-9359559,3904451
671,Westbrook Dairy,871 Son Wright Road Dixie,GA,31629,30.8585607,-83.7068816,Dairy cattle,CATTLE (Dairy);,SIS0241, ,0, ,0, , ,-9317928,3614648
672,Windy Hill Dairy Inc. (Bud Butcher Dairy),975 Rockhouse Rd Senoia,GA,30276,33.2822269,-84.5938563,Dairy cattle,CATTLE (Dairy);,SIS0241, ,0, ,0, , ,-9417590,3932989
673,Youngs Dairy,1123 Sessions Rd Tennille,GA,31089,32.9306507,-82.865922,Dairy cattle,CATTLE (Dairy);,SIS0241, ,0, ,0, , ,-9224877,3886181
674,TRIPLE A FARMS,3242 HOMESTEAD RD BOWMAN,SC,29018,33.37735515,-80.67604538,Dairy cattle,CATTLE (Dairy);,SIS0241, ,0,53700,53700,179 lb per day-animal, ,-8980817,3945500
675,BERRY DAIRY FARM,1110 COUNTRY RD BOWMAN,SC,29018,33.36315082,-80.71233442,Dairy cattle,CATTLE (Dairy);,SIS0241, ,0,49225,49225,179 lb per day-animal, ,-8984856,3943607
676,BEL-IVY FARM,100 SUMMIT DR GREER,SC,29108,34.28230742,-81.74273686,Dairy cattle,CATTLE (Dairy);,SIS0241, ,0,71600,71600,179 lb per day-animal, ,-9099560,4066773
677,LES LEA DAIRY,LESLEA DAIRY-511 BRASWELL RD NEWBERRY,SC,29108,34.32843456,-81.71217953,Dairy cattle,CATTLE (Dairy);,SIS0241, ,0,107400,107400,179 lb per day-animal, ,-9096159,4072989
678,LAWSON FARMS DAIRY,106 MIGHTY MOO DR PAULINE,SC,29374,34.82391696,-81.87363601,Dairy cattle,CATTLE (Dairy);,SIS0241, ,0,62650,62650,179 lb per day-animal, ,-9114132,4139979
679," 76 HOLSTEINS, INC",968 SPEARMAN RD NEWBERRY,SC,29108,34.32492631,-81.66008816,Dairy cattle,CATTLE (Dairy);,SIS0241, ,0,89500,89500,179 lb per day-animal, ,-9090360,4072516
680,MAYER DAIRY FARMS,968 SPEARMAN RD NEWBERRY,SC,29108,34.25523064,-81.68315794,Dairy cattle,CATTLE (Dairy);,SIS0241, ,0,268500,268500,179 lb per day-animal, ,-9092928,4063126
681,GREY ROCK FARMS,5580 ANDERSON MILL RD MOORE,SC,29652,34.88049487,-82.0139659,Dairy cattle,CATTLE (Dairy);,SIS0241, ,0,37590,37590,179 lb per day-animal, ,-9129753,4147654
682,EASTGLEN DAIRY FARM,900 EASTGLEN RD LAURENS,SC,29360,34.49767213,-81.96677421,Dairy cattle,CATTLE (Dairy);,SIS0241, ,0,57280,57280,179 lb per day-animal, ,-9124500,4095826
683,CLEMSON UNIVER/LAMASTER DAIRY,101 AG SERVICE CENTER CLEMSON,SC,29631,34.65926775,-82.82415395,Dairy cattle,CATTLE (Dairy);,SIS0241, ,0,25239,25239,179 lb per day-animal, ,-9219943,4117674
684,PLATT DAIRY,409 OCTOBER RD DENMARK,SC,29042,33.27291572,-81.16011027,Dairy cattle,CATTLE (Dairy);,SIS0241, ,0,17900,17900,179 lb per day-animal, ,-9034703,3931586
685,WATEREE PRISON FARM DAIRY,PO BOX 189 REMBERT,SC,29128,34.07743128,-80.58209036,Dairy cattle,CATTLE (Dairy);,SIS0241, ,0,53700,53700,179 lb per day-animal, ,-8970358,4039205
686,ADEN DIEM DAIRY FARM,17848 EHRHARDT RD OLAR,SC,29843,33.22429697,-81.12463439,Dairy cattle,CATTLE (Dairy);,SIS0241, ,0,35800,35800,179 lb per day-animal, ,-9030753,3925114
687,TESSIER DAIRY FARM,648 OLIN SMITH RD DONALDS,SC,29638,34.34957382,-82.35260571,Dairy cattle,CATTLE (Dairy);,SIS0241, ,0,47077,47077,179 lb per day-animal, ,-9167451,4075839
688,"SATTERWHITE FARMS, LLC",8720 Bush River Road NEWBERRY,SC,29108,34.32795609,-81.75698979,Dairy cattle,CATTLE (Dairy);,SIS0241, ,0,537000,537000,179 lb per day-animal, ,-9101147,4072925
689,WEATHERS DAIRY FARM,PO BOX 126 BOWMAN,SC,29018,33.33496949,-80.69393063,Dairy cattle,CATTLE (Dairy);,SIS0241, ,0,116350,116350,179 lb per day-animal, ,-8982808,3939851
690,GLENN DAIRY FACILITY,414 BLACKMAN RD PENDLETON,SC,29670,34.60001283,-82.72061566,Dairy cattle,CATTLE (Dairy);,SIS0241, ,0,22375,22375,179 lb per day-animal, ,-9208417,4109657
691,PINE LANE DAIRY FARM,6900 HWY 24 TOWNVILLE,SC,29689,34.5371423,-82.84578555,Dairy cattle,CATTLE (Dairy);,SIS0241, ,0,17900,17900,179 lb per day-animal, ,-9222351,4101158
692,BUFORD DAIRY FARM,10586 BUSH RIVED RD KINARDS,SC,29108,34.32255514,-81.76668398,Dairy cattle,CATTLE (Dairy);,SIS0241, ,0,85920,85920,179 lb per day-animal, ,-9102226,4072197
693,MILKY WAY FARM,220 HIDDEN HILLS RD STARR,SC,29684,34.37449068,-82.75685289,Dairy cattle,CATTLE (Dairy);,SIS0241, ,0,22375,22375,179 lb per day-animal, ,-9212451,4079199
694,MARTIN DAIRY,104 MARTIN LN PENDLETON,SC,29670,34.58985761,-82.72570467,Dairy cattle,CATTLE (Dairy);,SIS0241, ,0,25060,25060,179 lb per day-animal, ,-9208984,4108284
695,"SANDHILL DAIRY FARMS, INC.",968 SPEARMAN RD NEWBERRY,SC,29108,34.26076784,-81.76323796,Dairy cattle,CATTLE (Dairy);,SIS0241, ,0,102925,102925,179 lb per day-animal, ,-9101842,4063872
696,EBENHACK DAIRY FARM,827 PURPLE HAZE DR WESTMINISTER,SC,29693,34.60655217,-83.10626219,Dairy cattle,CATTLE (Dairy);,SIS0241, ,0,17900,17900,179 lb per day-animal, ,-9251347,4110542
697,WILL DO JERSEYS,3760 Hopewell Church Rd. Kinards,SC,29355,34.3644846,-81.84666551,Dairy cattle,CATTLE (Dairy);,SIS0241, ,0,35800,35800,179 lb per day-animal, ,-9111130,4077850
698,ZIEGENFUSS AND SONS FARM,2410 DAIRY RD WARE SHOALS,SC,29692,34.47703656,-82.24173788,Dairy cattle,CATTLE (Dairy);,SIS0241, ,0,42960,42960,179 lb per day-animal, ,-9155109,4093039
699,HEATWOLE FARMS INC,788 HEATWOLE RD DENMARK,SC,29042,33.24558578,-81.18257299,Dairy cattle,CATTLE (Dairy);,SIS0241, ,0,62650,62650,179 lb per day-animal, ,-9037203,3927948
700,SENN DAIRY FARM,968 SPEARMAN RD NEWBERRY,SC,29104,34.26347533,-81.75270394,Dairy cattle,CATTLE (Dairy);,SIS0241, ,0,71600,71600,179 lb per day-animal, ,-9100670,4064236
701,LONE OAK DAIRY,916 LEE STATE PARK RD LAMAR,SC,29080,34.01473209,-79.95575026,Dairy cattle,CATTLE (Dairy);,SIS0241, ,0,53700,53700,179 lb per day-animal, ,-8900634,4030781
702,CHAPLIN BROTHERS DAIRY,3516 HARTSVILLE HWY DARLINGTON,SC,29532,34.42274843,-79.95542492,Dairy cattle,CATTLE (Dairy);,SIS0241, ,0,35800,35800,179 lb per day-animal, ,-8900598,4085710
703,GREEN ACRES FARMS DAIRY,1410 LEITZEY RD POMARIA,SC,29126,34.30084444,-81.40415481,Dairy cattle,CATTLE (Dairy);,SIS0241, ,0,31325,31325,179 lb per day-animal, ,-9061869,4069271
704,FELDER DAIRY,PO BOX 5 BOWMAN,SC,29018,33.32021715,-80.69104648,Dairy cattle,CATTLE (Dairy);,SIS0241, ,0,125300,125300,179 lb per day-animal, ,-8982487,3937886
705,TRANTHAM DAIRY,330 MCKELVEY RD PELZER,SC,29669,34.61368662,-82.35326793,Dairy cattle,CATTLE (Dairy);,SIS0241, ,0,16110,16110,179 lb per day-animal, ,-9167524,4111507
706,RIDDLE DAIRY FARM,664 WILLOW SWAMP RD NORWAY,SC,29113,33.45000486,-81.19625929,Dairy cattle,CATTLE (Dairy);,SIS0241, ,0,107400,107400,179 lb per day-animal, ,-9038727,3955189
707,SUNNY DAY FARM  (DAIRY),1031 DUBLIN RD CHESTER,SC,29706,34.75425829,-81.2554259,Dairy cattle,CATTLE (Dairy);,SIS0241, ,0,35800,35800,179 lb per day-animal, ,-9045313,4130537
708,ANDERSON DAIRY,1777 BUSH RIVER RD NEWBERRY,SC,29108,34.294379,-81.6616101,Dairy cattle,CATTLE (Dairy);,SIS0241, ,0,31325,31325,179 lb per day-animal, ,-9090529,4068400
709,MCKIE'S DAIRY,41 OLD MARTINTOWN RD NORTH AUGUSTA,SC,29860,33.54822396,-82.00685964,Dairy cattle,CATTLE (Dairy);,SIS0241, ,0,26850,26850,179 lb per day-animal, ,-9128962,3968301
710,"BRUBAKER FARMS,INC",23073 EHRHARDT RD OLAR,SC,29843,33.22422158,-81.20857991,Dairy cattle,CATTLE (Dairy);,SIS0241, ,0,19690,19690,179 lb per day-animal, ,-9040098,3925104
711,JAQUES DAIRY FARM,3024 EBENEZER RD BOWMAN,SC,29018,33.30321642,-80.57285791,Dairy cattle,CATTLE (Dairy);,SIS0241, ,0,42960,42960,179 lb per day-animal, ,-8969330,3935621
712,HEGE DAIRY FARM,19219 EHRHARDT RD OLAR,SC,29843,33.21791052,-81.14833934,Dairy cattle,CATTLE (Dairy);,SIS0241, ,0,13425,13425,179 lb per day-animal, ,-9033392,3924265
713,STODDARD DAIRY FARM,3044 STODDARD MILL RD GRAY COURT,SC,29645,34.64012479,-82.16094496,Dairy cattle,CATTLE (Dairy);,SIS0241, ,0,22375,22375,179 lb per day-animal, ,-9146115,4115083
714,WILEY DAIRY,1428 HWY 20 ABBEVILLE,SC,29620,34.23656906,-82.38939866,Dairy cattle,CATTLE (Dairy);,SIS0241, ,0,8950,8950,179 lb per day-animal, ,-9171546,4060613
715,BUSH RIVER JERSEY FARM,PO Box 445 Chapin,SC,29108,34.29989412,-81.68692518,Dairy cattle,CATTLE (Dairy);,SIS0241, ,0,85025,85025,179 lb per day-animal, ,-9093347,4069143
716,BUCK DAIRY, ,SC,0,34.08700449,-81.68757794,Dairy cattle,CATTLE (Dairy);,SIS0241, ,0,3580,3580,179 lb per day-animal, ,-9093420,4040491
717,NANCE DAIRY FARM,399 LOWRY'S RD MCCONNELLS,SC,29726,34.87749131,-81.24240243,Dairy cattle,CATTLE (Dairy);,SIS0241, ,0,35800,35800,179 lb per day-animal, ,-9043863,4147246
718,DIEM DAIRY,2404 UNDERPASS RD DENMARK,SC,29042,33.32914783,-81.10296698,Dairy cattle,CATTLE (Dairy);,SIS0241, ,0,44750,44750,179 lb per day-animal, ,-9028341,3939076
719,R&M JERSEY FARM,PO BOX 19 DARLINGTON,SC,29532,34.25107062,-79.9162093,Dairy cattle,CATTLE (Dairy);,SIS0241, ,0,35800,35800,179 lb per day-animal, ,-8896232,4062566
720,FORREST DAIRY FACILITY,469 DANIEL AVE JOHNSTON,SC,29832,33.91715452,-81.78083862,Dairy cattle,CATTLE (Dairy);,SIS0241, ,0,35800,35800,179 lb per day-animal, ,-9103802,4017684
721,COVINGTON DAIRY FACILITY,3955 CHESTER HWY MCCONNELLS,SC,29726,34.8781687,-81.21802286,Dairy cattle,CATTLE (Dairy);,SIS0241, ,0,22375,22375,179 lb per day-animal, ,-9041149,4147338
722,LANDSDOWNE DAIRY,2742 LANDSDOWNE RD BOWMAN,SC,29018,33.37214278,-80.60251331,Dairy cattle,CATTLE (Dairy);,SIS0241, ,0,53700,53700,179 lb per day-animal, ,-8972631,3944805
723,NICHOLS/LONGSHORE DAIRY,431 CORINTH RD SALUDA,SC,29138,34.07854148,-81.61779256,Dairy cattle,CATTLE (Dairy);,SIS0241, ,0,42960,42960,179 lb per day-animal, ,-9085651,4039354
724,STEPHENSON DAIRY FACILITY,1924 STEPHENSON RD CHESTER,SC,29706,34.78060173,-81.26059102,Dairy cattle,CATTLE (Dairy);,SIS0241, ,0,125300,125300,179 lb per day-animal, ,-9045888,4134107
725,OLD SALEM DAIRY,3303 THUNDER RD OLAR,SC,29843,33.2270797,-81.18625464,Dairy cattle,CATTLE (Dairy);,SIS0241, ,0,89500,89500,179 lb per day-animal, ,-9037613,3925485
726,"BRUBAKER ACRES, INC.",693 DECEMBER RD OLAR,SC,29843,33.22985193,-81.21801794,Dairy cattle,CATTLE (Dairy);,SIS0241, ,0,44750,44750,179 lb per day-animal, ,-9041149,3925854
727,SHULER DAIRY FACILITY,3015 HOMESTEAD RD BOWMAN,SC,29018,33.37333802,-80.66362505,Dairy cattle,CATTLE (Dairy);,SIS0241, ,0,48330,48330,179 lb per day-animal, ,-8979434,3944965
728,HAMMOND DAIRY,329 OLD CHAPPEL FERRY RD JOHNSTON,SC,29832,33.8580201,-81.88910397,Dairy cattle,CATTLE (Dairy);,SIS0241, ,0,17900,17900,179 lb per day-animal, ,-9115854,4009754
729,RILEY DAIRY,195 CLINT RILEY RD SALUDA,SC,29138,34.11285734,-81.69205849,Dairy cattle,CATTLE (Dairy);,SIS0241, ,0,30430,30430,179 lb per day-animal, ,-9093919,4043967
730,HICKORY HILL FARM,203 FAULKNER MOUNTAIN RD EDGEFIELD,SC,29824,33.94205524,-81.96294857,Dairy cattle,CATTLE (Dairy);,SIS0241, ,0,35800,35800,179 lb per day-animal, ,-9124074,4021025
731,SHUMPERT DAIRY,276 DAIRYLAND DR LEESVILLE,SC,29070,33.77989406,-81.3608503,Dairy cattle,CATTLE (Dairy);,SIS0241, ,0,28640,28640,179 lb per day-animal, ,-9057049,3999286
732,ROBERT LEE DAIRY,1924 STEPHENSON RD CHESTER,SC,29706,34.78158138,-81.25360832,Dairy cattle,CATTLE (Dairy);,SIS0241, ,0,35800,35800,179 lb per day-animal, ,-9045111,4134239
733,ORR DAIRY FARM,180 OCONEE BELLE LN WALHALLA,SC,29691,34.80869426,-83.02184543,Dairy cattle,CATTLE (Dairy);,SIS0241, ,0,14320,14320,179 lb per day-animal, ,-9241950,4137915
734,SASSAFRAS DAIRY FARM,611 SASSAFRAS RD BLACKVILLE,SC,29817,33.28657151,-81.21840616,Dairy cattle,CATTLE (Dairy);,SIS0241, ,0,10740,10740,179 lb per day-animal, ,-9041192,3933404
735,"MEADOW VIEW CATTLE, INC.",6209 GOVAN RD OLAR,SC,29843,33.23505866,-81.15487951,Dairy cattle,CATTLE (Dairy);,SIS0241, ,0,53700,53700,179 lb per day-animal, ,-9034120,3926547
736,DANNY HEGE DAIRY,782 PARTRIDGE RD OLAR,SC,29843,33.20702257,-81.25170463,Dairy cattle,CATTLE (Dairy);,SIS0241, ,0,107400,107400,179 lb per day-animal, ,-9044899,3922816
737,WATEREE CORRECTIONAL INSTITUTE DAIRY,8200 STATE FARM RD REMBERT,SC,29128,34.07872386,-80.58430868,Dairy cattle,CATTLE (Dairy);,SIS0241, ,0,268500,268500,179 lb per day-animal, ,-8970605,4039379
738,BOOZER DAIRY,818 BOOZER DAIRY RD CHAPPELLS,SC,29037,34.26590842,-81.87645765,Dairy cattle,CATTLE (Dairy);,SIS0241, ,0,10740,10740,179 lb per day-animal, ,-9114446,4064564
739,LEON DUECK DAIRY,1918 JUNIPER CREEK RD OLAR,SC,29843,33.1981274,-81.17561266,Dairy cattle,CATTLE (Dairy);,SIS0241, ,0,53700,53700,179 lb per day-animal, ,-9036428,3921633
740,HENSLEY FARMS, ,SC,0,34.3038592,-82.5146017,Dairy cattle,CATTLE (Dairy);,SIS0241, ,0,17900,17900,179 lb per day-animal, ,-9185484,4069677
741,"HERBAUGH, DOUGLAS", 11124 KELLER RD. CENTERTON,AR,72719,36.386531,-94.308761,Dairy cattle,CATTLE (Dairy);,SIS0241, ,0, ,0, , ,-10498404,4353940
744,"ANGLIN, RYAN/TRIPLE A FARM", 5985 S.W. ANGLIN ROAD BENTONVILLE,AR,72712,36.3275142,-94.2828241,Dairy cattle,CATTLE (Dairy);,SIS0241, ,0, ,0, , ,-10495517,4345782
745,"MAYER, DONALD/DYNAMIC DAIRY", 5201 S. Vaughn Bentonville,AR,72712,36.3236045,-94.3029773,Dairy cattle,CATTLE (Dairy);,SIS0241, ,0, ,0, , ,-10497760,4345242
746,CRAWLEY VALLEY VIEW FARM, 13585 CRAWLEY RD GRAVETTE,AR,72736,36.4359996,-94.5798943,Dairy cattle,CATTLE (Dairy);,SIS0241, ,0, ,0, , ,-10528586,4360782
747,HAAK DAIRY, 20083 E. DAWN HILL RD. GENTRY,AR,72734,36.2474741,-94.4793523,Dairy cattle,CATTLE (Dairy);,SIS0241, ,0, ,0, , ,-10517394,4334728
748,BEAVER FARMS, 12773 Lee Town Rd. Pea Ridge,AR,72751,36.4414061,-94.0984746,Dairy cattle,CATTLE (Dairy);,SIS0241, ,0, ,0, , ,-10474995,4361530
752,Wahrmund Dairy, 11 Wahrmund Rd. Springfield,AR,72157,35.2748596,-92.6036048,Dairy cattle,CATTLE (Dairy);,SIS0241, ,0, ,0, , ,-10308587,4201297
753,"HART, JIMMY"," PO BOX 9, HWY 92N SPRINGFIELD",AR,72157,35.2675809,-92.5576595,Dairy cattle,CATTLE (Dairy);,SIS0241, ,0, ,0, , ,-10303472,4200305
754,"ACRE, C.W./GREEN ACRES DAIRY", 260 HWY 25N GREENBRIER,AR,72058,35.2339712,-92.387655,Dairy cattle,CATTLE (Dairy);,SIS0241, ,0, ,0, , ,-10284547,4195723
756,"ABB Motors & Mechanical, Inc.", 1910 BALDOR DRIVE OZARK,AR,72949,35.4960797,-93.844631,Dairy cattle,CATTLE (Dairy);,SIS0241, ,0, ,0, , ,-10446737,4231503
759,"VERKAMP, TIM", 804 PRAIRIE ST. CHARLESTON,AR,72933,35.3040937,-94.0342036,Dairy cattle,CATTLE (Dairy);,SIS0241, ,0, ,0, , ,-10467840,4205284
764,ARK CORRECTIONS DEPT-CUMMINS, PO Box 8707 Pine Bluff,AR,71611,34.2136114,-91.9772963,Dairy cattle,CATTLE (Dairy);,SIS0241, ,0, ,0, , ,-10238866,4057522
766,SMITH JAMES W., 4791 TIPPITT RD. CARLISLE,AR,72024,34.9208659,-91.789689,Dairy cattle,CATTLE (Dairy);,SIS0241, ,0, ,0, , ,-10217982,4153133
767,"BURNS,DWAYNE DAIRY", PO BOX 94 AUSTIN,AR,72007,34.9984206,-91.9837552,Dairy cattle,CATTLE (Dairy);,SIS0241, ,0, ,0, , ,-10239586,4163667
771,COMER DAIRY, 115 Madison 8690 Huntsville,AR,72740,36.2635379,-93.768995,Dairy cattle,CATTLE (Dairy);,SIS0241, ,0, ,0, , ,-10438318,4336946
780,HOERLER DAIRY, 17960 SYBLE RD. LINCOLN,AR,72744,36.036776,-94.386449,Dairy cattle,CATTLE (Dairy);,SIS0241, ,0, ,0, , ,-10507052,4305684
781,DAVIS RIVERVIEW FARMS, 12289 PEARSON RANCH RD. PRAIRIE GROVE,AR,72753,36.027583,-94.325789,Dairy cattle,CATTLE (Dairy);,SIS0241, ,0, ,0, , ,-10500300,4304418
784,WILLIAM (BUD) BEATY, PO BOX 13 SUMMERS,AR,72769,35.978619,-94.4913867,Dairy cattle,CATTLE (Dairy);,SIS0241, ,0, ,0, , ,-10518734,4297681
